shapeid,lon,lat,Provider N,Network,Facility N,Address Li,City,State,Zip,County,Chain Orga,Profit or,Certificat,# of Dialy,Offers in-,addrtype,addrlocat
0,-118.3536435,33.9530396,52538,18,DAVITA-INGLEWOOD DIALYSIS,125 E. ARBOR VITAE,INGLEWOOD,CA,90301,LOS ANGELES,DAVITA,Profit,8/15/1977,41,TRUE,premise,ROOFTOP
1,-121.8491238,39.7518613,52553,17,CHICO DIALYSIS CENTER,530 COHASSET ROAD,CHICO,CA,95926,BUTTE,DAVITA,Profit,8/22/1978,20,TRUE,premise,ROOFTOP
2,-119.7580447,34.4435615,52513,18,FMC-SANTA BARBARA COMMUNITY DIALYSIS CENTER,222 PESETAS LANE,SANTA BARBARA,CA,93110,SANTA BARBARA,FRESENIUS MEDICAL CARE,Profit,8/29/1978,14,TRUE,premise,ROOFTOP
3,-122.4318277,37.7842025,52719,17,SAN FRANCISCO DIALYSIS CENTER,1499 WEBSTER STREET,SAN FRANCISCO,CA,94115,SAN FRANCISCO,DAVITA,Profit,6/17/1991,30,TRUE,street_address,ROOFTOP
4,-117.3464781,34.0737569,52817,18,"FMC-RAI-CARE CENTERS OF COLTON, LLC","1275 W. ""C"" STREET",COLTON,CA,92324,SAN BERNARDINO,FRESENIUS MEDICAL CARE,Profit,1/23/1998,20,TRUE,premise,ROOFTOP
5,-118.2510246,33.9024716,552661,18,DAVITA-GATEWAY PLAZA DIALYSIS CENTER,1580 W. ROSECRANS AVENUE,COMPTON,CA,90220,LOS ANGELES,DAVITA,Profit,9/22/2010,16,TRUE,street_address,ROOFTOP
6,-121.6341034,37.1184588,552685,17,SATELLITE DIALYSIS MORGAN HILL,"16060 CAPUTO DRIVE, SUITE 140",MORGAN HILL,CA,95037,SANTA CLARA,SATELLITE DIALYSIS,Non-Profit,11/21/2011,17,TRUE,subpremise,ROOFTOP
7,-121.2818978,37.8829215,53526,17,SAN JOAQUIN GENERAL HOSPITAL,7783 SOUTH FREEDOM ROAD,FRENCH CAMP,CA,95231,SAN JOAQUIN,INDEPENDENT,Non-Profit,8/3/2007,24,TRUE,street_address,RANGE_INTERPOLATED
8,-118.2657271,33.9895118,552793,18,DAVITA-AVALON DIALYSIS,5807 S. AVALON BLVD.,LOS ANGELES,CA,90011,LOS ANGELES,DAVITA,Profit,7/11/2016,24,TRUE,premise,ROOFTOP
9,-122.1589494,38.0486516,52810,17,BENICIA DIALYSIS CENTER,560 FIRST STREET BLDG D103,BENICIA,CA,94510,SOLANO,DAVITA,Profit,6/30/1997,14,TRUE,subpremise,ROOFTOP
10,-122.1262352,37.700337,552633,17,SAN LEANDRO DIALYSIS,15555 EAST 14TH STREET SUITE 520,SAN LEANDRO,CA,94578,ALAMEDA,DAVITA,Profit,12/14/2009,23,TRUE,subpremise,ROOFTOP
11,-121.8406963,37.9995699,52831,17,FMC DIABLO WEST ANTIOCH,2386 BUCHANAN ROAD,ANTIOCH,CA,94509,CONTRA COSTA,FRESENIUS MEDICAL CARE,Profit,6/13/1998,15,TRUE,street_address,ROOFTOP
12,-118.4180247,37.3616966,52836,18,TOIYABE DIALYSIS CENTER,44 TU SU LANE,BISHOP,CA,93514,INYO,INDEPENDENT,Non-Profit,8/10/1998,12,TRUE,street_address,RANGE_INTERPOLATED
13,-121.5002246,38.4816575,552748,17,DCI-MEADOWVIEW DIALYSIS CLINIC,"1545 MEADOWVIEW RD., SUITE 130-180",SACRAMENTO,CA,95832,SACRAMENTO,"DIALYSIS CLINIC, INC.",Non-Profit,3/24/2014,24,TRUE,subpremise,ROOFTOP
14,-117.8317839,33.7460601,552807,18,DAVITA-TUSTIN RANCH DIALYSIS,721 W 1ST STREET,TUSTIN,CA,92780,ORANGE,DAVITA,Profit,1/20/2017,25,TRUE,premise,ROOFTOP
15,-118.1433088,34.0777458,52764,18,FMC-SAN GABRIEL VALLEY PD CLINIC,"1801 W. VALLEY BLVD., SUITE 204",ALHAMBRA,CA,91803,LOS ANGELES,FRESENIUS MEDICAL CARE,Profit,4/27/1995,6,FALSE,subpremise,ROOFTOP
16,-117.7228133,33.62617,52808,18,DAVITA-SADDLEBACK DIALYSIS,23141 PLAZA POINTE DRIVE,LAGUNA HILLS,CA,92653,ORANGE,DAVITA,Profit,9/10/1997,25,TRUE,subpremise,ROOFTOP
17,-121.5381154,39.5017289,52876,17,OROVILLE DIALYSIS CLINIC,3012 OLIVE HIGHWAY,OROVILLE,CA,95966,BUTTE,"DIALYSIS CLINIC, INC.",Non-Profit,1/9/2002,15,TRUE,premise,ROOFTOP
18,-118.2984966,33.7905465,552532,18,FMC-SOUTH BAY,1221 W. PACIFIC COAST HIGHWAY,HARBOR CITY,CA,90710,LOS ANGELES,FRESENIUS MEDICAL CARE,Profit,9/15/2004,25,TRUE,street_address,RANGE_INTERPOLATED
19,-118.0060011,33.7394456,552598,18,FMC-RAI-GOLDENWEST-WESTMINSTER,15330 GOLDENWEST STREET,WESTMINSTER,CA,92683,ORANGE,FRESENIUS MEDICAL CARE,Profit,4/30/2008,24,TRUE,street_address,ROOFTOP
20,-118.351982,33.9317911,52746,18,DAVITA-AIRPORT SUNRISE DIALYSIS CENTER,11300 HAWTHORNE BLVD,INGLEWOOD,CA,90304,LOS ANGELES,DAVITA,Profit,1/1/1994,25,TRUE,premise,ROOFTOP
21,-119.334132,36.3385141,52771,18,DAVITA-VISALIA AT HOME DIALYSIS,1120 N. CHINOWTH STREET,VISALIA,CA,93291,TULARE,DAVITA,Profit,10/3/1995,0,FALSE,premise,ROOFTOP
22,-117.866419,34.1351722,52820,18,FMC-RAI-W. FOOTHILL BLVD-GLENDORA,120 W. FOOTHILL BLVD.,GLENDORA,CA,91740,LOS ANGELES,FRESENIUS MEDICAL CARE,Profit,1/29/1998,32,TRUE,street_address,ROOFTOP
23,-117.574944,34.090928,52855,18,FMC-RANCHO CUCAMONGA,"10532 ACACIA STREET, SUITE B2-B3",RANCHO CUCAMONGA,CA,91730,SAN BERNARDINO,FRESENIUS MEDICAL CARE,Profit,2/7/2000,25,TRUE,subpremise,ROOFTOP
24,-121.4554825,37.7527052,552632,17,SATELLITE DIALYSIS OF TRACY,2156 WEST GRANT LINE ROAD #150,TRACY,CA,95377,SAN JOAQUIN,SATELLITE HEALTHCARE,Non-Profit,10/14/2009,25,TRUE,subpremise,ROOFTOP
25,-117.2694946,33.9159285,552622,18,DAVITA-CANYON SPRINGS DIALYSIS,"22555 ALESSANDRO BLVD., SUITE A",MORENO VALLEY,CA,92553,RIVERSIDE,DAVITA,Profit,5/21/2009,32,TRUE,subpremise,ROOFTOP
26,-122.4075259,37.761684,552809,17,FMC POTRERO AVENUE,626 POTRERO AVE,SAN FRANCISCO,CA,94110,SAN FRANCISCO,FRESENIUS MEDICAL CARE,Profit,5/22/2017,25,TRUE,premise,ROOFTOP
27,-122.1316146,38.2196629,52618,17,FAIRFIELD DIALYSIS CENTER,4660 CENTRAL WAY,FAIRFIELD,CA,94534,SOLANO,DAVITA,Profit,3/29/1985,32,TRUE,premise,ROOFTOP
28,-118.1789831,33.7901724,552579,18,DAVITA-LONG BEACH HARBOR (UCLA) DIALYSIS CENTER,1075 E. PACIFIC COAST HIGHWAY,LONG BEACH,CA,90806,LOS ANGELES,DAVITA,Profit,5/30/2007,12,TRUE,street_address,ROOFTOP
29,-117.2641774,34.0494519,52406,18,LOMA LINDA UNIVERSITY CHILDREN'S HOSPITAL PEDIATRIC CHRONIC DIALYSIS,"CHILDRENS HOSPITAL 11234 ANDERSON ST., RM. 4219",LOMA LINDA,CA,92354,SAN BERNARDINO,INDEPENDENT,Non-Profit,8/11/1977,5,TRUE,establishment,ROOFTOP
30,-118.0724414,34.1460053,552660,18,DAVITA-PASADENA FOOTHILLS DIALYSIS CENTER,3722 E. COLORADO BLVD.,PASADENA,CA,91107,LOS ANGELES,DAVITA,Profit,9/29/2010,21,TRUE,premise,ROOFTOP
31,-117.670958,34.1012707,552813,18,DAVITA-UPLAND COLONIES DIALYSIS,587 N. MOUNTAIN AVENUE,UPLAND,CA,91786,SAN BERNARDINO,DAVITA,Profit,4/6/2017,25,TRUE,street_address,ROOFTOP
32,-118.197258,33.7668273,52523,18,FMC-LONG BEACH,440 W. OCEAN BLVD.,LONG BEACH,CA,90802,LOS ANGELES,FRESENIUS MEDICAL CARE,Profit,8/5/1977,16,TRUE,street_address,ROOFTOP
33,-118.3835842,34.0733332,52837,18,U.S. RENAL CARE WESTSIDE DIALYSIS,300 S. ROBERTSON BLVD.,LOS ANGELES,CA,90048,LOS ANGELES,"US RENAL CARE, INC.",Profit,8/19/1998,24,TRUE,premise,ROOFTOP
34,-117.0861196,32.7071385,52883,18,DAVITA-SAN DIEGO EAST,"292 EUCLID AVENUE, SUITE 100",SAN DIEGO,CA,92114,SAN DIEGO,DAVITA,Profit,5/29/2002,21,TRUE,subpremise,ROOFTOP
35,-117.0685592,32.5742954,52864,18,FMC-SAN YSIDRO DIALYSIS CENTER,3010 DEL SOL BLVD.,SAN DIEGO,CA,92154,SAN DIEGO,FRESENIUS MEDICAL CARE,Profit,8/17/2000,20,TRUE,premise,ROOFTOP
36,-117.2621549,33.1932258,52842,18,FMC-BUENA CREEK,950 HACIENDA DRIVE,VISTA,CA,92081,SAN DIEGO,FRESENIUS MEDICAL CARE,Profit,3/1/1998,22,TRUE,premise,ROOFTOP
37,-117.1177889,33.1311005,552618,18,DAVITA-SAN MARCOS DIALYSIS CENTER,"2135 MONTIEL ROAD, BLDG. B",SAN MARCOS,CA,92069,SAN DIEGO,DAVITA,Profit,5/20/2009,20,TRUE,subpremise,ROOFTOP
38,-121.0722955,37.7048002,552752,17,SATELLITE HEALTHCARE NORTH MODESTO,"4207 BANGS AVENUE, SUITE 100",MODESTO,CA,95356,STANISLAUS,SATELLITE HEALTHCARE,Non-Profit,3/18/2014,16,TRUE,subpremise,ROOFTOP
39,-122.7053059,38.4422629,52524,17,BMA SANTA ROSA,1020 SECOND STREET,SANTA ROSA,CA,95404,SONOMA,FRESENIUS MEDICAL CARE,Profit,8/18/1977,16,TRUE,premise,ROOFTOP
40,-118.364959,33.9771033,52634,18,FMC-RAI-CENTINELA-INGLEWOOD,1416 CENTINELA AVENUE,INGLEWOOD,CA,90302,LOS ANGELES,FRESENIUS MEDICAL CARE,Profit,11/20/1985,25,TRUE,premise,ROOFTOP
41,-115.545302,32.7716221,52792,18,FMC-IMPERIAL COUNTY,200 WAKE AVENUE,EL CENTRO,CA,92243,IMPERIAL,FRESENIUS MEDICAL CARE,Profit,8/20/1996,36,TRUE,premise,ROOFTOP
42,-121.4552303,38.5520543,52405,17,UC DAVIS MEDICAL CENTER PEDIATRIC,2521 STOCKTON BLVD,SACRAMENTO,CA,95817,SACRAMENTO,INDEPENDENT,Non-Profit,8/3/2016,0,TRUE,premise,ROOFTOP
43,-121.2929448,38.1150415,52753,17,LODI DIALYSIS CENTER,"1610 WEST KETTLEMAN LANE, SUITE D",LODI,CA,95242,SAN JOAQUIN,DAVITA,Profit,10/26/1997,21,TRUE,subpremise,ROOFTOP
44,-119.6246066,36.5736574,52770,17,SELMA DIALYSIS CENTER,2711 CINEMA WAY #111,SELMA,CA,93662,FRESNO,DAVITA,Profit,9/27/1995,16,TRUE,subpremise,ROOFTOP
45,-117.4713385,33.9029833,552627,18,DAVITA-RIVERSIDE PD CENTRAL,"3660 PARK SIERRA, SUITE 108",RIVERSIDE,CA,92505,RIVERSIDE,DAVITA,Profit,4/17/2009,11,FALSE,subpremise,ROOFTOP
46,-121.9745936,37.5497795,52722,17,FMC FREMONT,39505 PASEO PADRE PARKWAY,FREMONT,CA,94538,ALAMEDA,FRESENIUS MEDICAL CARE,Profit,3/6/1992,24,TRUE,premise,ROOFTOP
47,-121.4322185,37.7450588,52814,17,TRACY DIALYSIS CENTER,"425 BEVERLY PLACE, SUITE A",TRACY,CA,95376,SAN JOAQUIN,DAVITA,Profit,10/1/1997,12,TRUE,subpremise,ROOFTOP
48,-117.6991412,34.0878796,552815,18,DAVITA-ONTARIO MILLS DIALYSIS,9142 MONTE VISTA AVENUE,ONTARIO,CA,91761,SAN BERNARDINO,DAVITA,Profit,8/22/2017,25,TRUE,street_address,RANGE_INTERPOLATED
49,-122.1637395,37.7225116,552629,17,SATELLITE DIALYSIS SAN LEANDRO,801 DAVIS STREET,SAN LEANDRO,CA,94577,ALAMEDA,SATELLITE HEALTHCARE,Non-Profit,10/30/2009,24,TRUE,premise,ROOFTOP
50,-122.0683394,37.9805206,52759,17,FMC DIABLO CONCORD,508 CONTRA COSTA BLVD #D,PLEASANT HILL,CA,94523,CONTRA COSTA,FRESENIUS MEDICAL CARE,Profit,1/1/1995,22,TRUE,subpremise,ROOFTOP
51,-121.8378018,38.0019739,52841,17,ANTIOCH DIALYSIS CENTER,3100 DELTA FAIR BLVD,ANTIOCH,CA,94509,CONTRA COSTA,DAVITA,Profit,10/14/1998,20,TRUE,subpremise,ROOFTOP
52,-124.1027575,40.9392619,552658,17,FMC MCKINLEYVILLE,1550 HEARTWOOD DRIVE,MCKINLEYVILLE,CA,95519,HUMBOLDT,FRESENIUS MEDICAL CARE,Profit,10/19/2009,15,TRUE,premise,ROOFTOP
53,-117.0953129,32.6244276,52731,18,FMC-BALBOA MARINA BAY,"630 BAY BLVD., SUITE 101",CHULA VISTA,CA,91910,SAN DIEGO,FRESENIUS MEDICAL CARE,Profit,6/14/1993,31,TRUE,subpremise,ROOFTOP
54,-117.9663223,33.9958895,52879,18,HACIENDA DIALYSIS CENTER,"2020 S. HACIENDA BLVD., SUITE G",HACIENDA HEIGHTS,CA,91745,LOS ANGELES,INDEPENDENT,Profit,12/17/2001,18,TRUE,subpremise,ROOFTOP
55,-117.2899767,34.4813937,52714,18,DESERT CITIES DIALYSIS,12675 HESPERIA ROAD,VICTORVILLE,CA,92392,SAN BERNARDINO,INDEPENDENT,Profit,8/5/1991,30,TRUE,premise,ROOFTOP
56,-118.1392973,33.848316,52539,18,DAVITA-LAKEWOOD DIALYSIS CENTER,4611 SILVA STREET,LAKEWOOD,CA,90712,LOS ANGELES,DAVITA,Profit,7/11/1978,30,TRUE,street_address,ROOFTOP
57,-118.1500065,34.1319618,52619,18,HUNTINGTON DIALYSIS CENTER,806 S. FAIR OAKS AVENUE,PASADENA,CA,91105,LOS ANGELES,"HEMODIALYSIS, INC.",Profit,4/1/1985,48,TRUE,street_address,ROOFTOP
58,-118.0665878,33.8026583,52515,18,LOS ALAMITOS HEMODIALYSIS CENTER,3810 KATELLA AVENUE,LOS ALAMITOS,CA,90720,ORANGE,INDEPENDENT,Profit,8/15/1977,32,TRUE,street_address,ROOFTOP
59,-119.2279016,35.7747765,552818,18,"DELANO KIDNEY CENTER, LLC",1980 CECIL AVENUE,DELANO,CA,93215,KERN,AMERICAN RENAL ASSOCIATES,Profit,11/9/2017,20,TRUE,street_address,ROOFTOP
60,-118.4478247,34.2008998,552844,18,CALANTE DIALYSIS LLC,14434 SHERMAN WAY,VAN NUYS,CA,91405,LOS ANGELES,DAVITA,Profit,10/19/2018,36,TRUE,premise,ROOFTOP
61,-121.8355927,38.4623789,552603,17,JOY OF DIXON DIALYSIS CENTER,1640 NORTH LINCOLN STREET,DIXON,CA,95620,SOLANO,DAVITA,Profit,8/19/2008,11,TRUE,premise,ROOFTOP
62,-121.8270276,37.2519668,52600,17,SATELLITE DIALYSIS SAN JOSE,393 BLOSSOM HILL ROAD SUITE 110,SAN JOSE,CA,95123,SANTA CLARA,SATELLITE HEALTHCARE,Non-Profit,9/14/1984,24,TRUE,subpremise,ROOFTOP
63,-122.3766383,40.6129821,552537,17,DCI REDDING,180 NORTHPOINT DRIVE,REDDING,CA,96003,SHASTA,"DIALYSIS CLINIC, INC.",Non-Profit,1/5/2005,24,TRUE,premise,ROOFTOP
64,-118.4869928,34.0263286,52665,18,DAVITA-SANTA MONICA DIALYSIS,"1260 15TH STREET, SUITE 102",SANTA MONICA,CA,90404,LOS ANGELES,DAVITA,Profit,9/1/1987,22,TRUE,subpremise,ROOFTOP
65,-119.0935203,35.3953311,552795,18,DAVITA-RIVERLAKES HOME TRAINING,"3933 COFFEE ROAD, SUITE A",BAKERSFIELD,CA,93308,KERN,DAVITA,Profit,10/17/2016,7,TRUE,subpremise,ROOFTOP
66,-118.1118564,33.9922793,552773,18,DAVITA-BLUFF RD DIALYSIS,100 W. WASHINGTON BLVD.,MONTEBELLO,CA,90640,LOS ANGELES,DAVITA,Profit,12/8/2014,24,TRUE,premise,ROOFTOP
67,-118.1257302,33.9308644,552624,18,DAVITA-DOWNEY LANDING DIALYSIS CENTER,11611 BELLFLOWER BLVD.,DOWNEY,CA,90241,LOS ANGELES,DAVITA,Profit,6/8/2009,25,TRUE,street_address,ROOFTOP
68,-121.6709968,36.6868014,552713,17,LAUREL MEADOWS DIALYSIS CENTER,"3 ROSSI CIRCLE, STE A",SALINAS,CA,93907,MONTEREY,DAVITA,Profit,4/10/2013,24,TRUE,subpremise,ROOFTOP
69,-118.0371643,34.0507984,52717,18,DAVITA-GREATER EL MONTE DIALYSIS CENTER,"1938 TYLER AVENUE, SUITE J-168",SOUTH EL MONTE,CA,91733,LOS ANGELES,DAVITA,Profit,10/15/1991,14,TRUE,subpremise,ROOFTOP
70,-117.0909462,32.799875,52779,18,"RAI CARE CENTERS OF SOUTHERN CALIFORNIA, LLC","7007 MISSION GORGE ROAD, 1ST FLOOR",SAN DIEGO,CA,92120,SAN DIEGO,FRESENIUS MEDICAL CARE,Profit,3/4/1996,33,TRUE,subpremise,ROOFTOP
71,-117.9597814,33.8391962,52862,18,FMC-NORTH ORANGE COUNTY,"511 N. BROOKHURST STREET, SUITE 100",ANAHEIM,CA,92801,ORANGE,FRESENIUS MEDICAL CARE,Profit,8/8/2000,18,TRUE,subpremise,ROOFTOP
72,-120.0513119,36.9461182,552564,17,ALMOND-WOOD DIALYSIS,501 E ALMOND AVENUE,MADERA,CA,93637,MADERA,DAVITA,Profit,8/23/2006,22,TRUE,premise,ROOFTOP
73,-117.835264,33.7477876,53527,18,ST. JOSEPH HOSPITAL DIALYSIS CENTER-SANTA ANA,"2212 E. 4TH STREET, SUITE 101",SANTA ANA,CA,92705,ORANGE,INDEPENDENT,Non-Profit,10/14/2009,30,TRUE,subpremise,ROOFTOP
74,-121.9315708,37.3112781,552767,17,SATELLITE HEALTHCARE SAN JOSE,888 SOUTH BASCOM AVENUE,SAN JOSE,CA,95128,SANTA CLARA,SATELLITE HEALTHCARE,Non-Profit,12/2/2014,25,TRUE,street_address,ROOFTOP
75,-117.5869117,33.8768584,552826,18,DAVITA - CIRCLE CITY DIALYSIS,1180 W 6TH STREET,CORONA,CA,92882,RIVERSIDE,DAVITA,Profit,1/10/2018,32,TRUE,premise,ROOFTOP
76,-117.3305798,33.1863568,52834,18,U.S. RENAL CARE OCEANSIDE DIALYSIS,2227- B EL CAMINO REAL,OCEANSIDE,CA,92054,SAN DIEGO,"US RENAL CARE, INC.",Profit,7/10/1998,21,TRUE,street_address,ROOFTOP
77,-117.0549019,32.7546315,552513,18,DAVITA-COLLEGE DIALYSIS,6535 UNIVERSITY AVENUE,SAN DIEGO,CA,92115,SAN DIEGO,DAVITA,Profit,10/31/2003,20,TRUE,street_address,ROOFTOP
78,-117.0866712,32.5945476,52653,18,FMC-CHULA VISTA DIALYSIS CENTER-SOUTH,"2252 VERUS STREET, SUITE D",SAN DIEGO,CA,92154,SAN DIEGO,FRESENIUS MEDICAL CARE,Profit,1/1/1987,30,TRUE,subpremise,ROOFTOP
79,-117.8440556,33.8531351,52394,18,KAISER FOUNDATION HOSPITAL MEDICAL CTR.- ANAHEIM,"PERITONEAL DIALYSIS UNIT, 3460 E. LA PALMA AVENUE",ANAHEIM,CA,92806,ORANGE,KAISER PERMANENTE,Non-Profit,11/30/1999,4,FALSE,premise,ROOFTOP
80,-117.3314328,34.1649826,52743,18,DAVITA-MOUNTAIN VISTA DIALYSIS CENTER,4041 UNIVERSITY PARKWAY,SAN BERNARDINO,CA,92407,SAN BERNARDINO,DAVITA,Profit,1/1/1994,28,TRUE,premise,ROOFTOP
81,-117.9068887,33.6790264,552631,18,FMC-NEWPORT MESA DIALYSIS SERVICES,"1175 BAKER STREET, SUITE B",COSTA MESA,CA,92626,ORANGE,FRESENIUS MEDICAL CARE,Profit,10/15/2009,16,TRUE,subpremise,ROOFTOP
82,-120.9716335,37.5942946,552839,17,DAVITA WHITMORE DIALYSIS,1424 E. WHITMORE AVE,CERES,CA,95307,STANISLAUS,DAVITA,Profit,8/27/2018,24,TRUE,premise,ROOFTOP
83,-117.561849,33.9274135,552571,18,DAVITA-NORCO DIALYSIS CENTER,"1901 TOWN AND COUNTRY DRIVE, SUITE 100",NORCO,CA,92860,RIVERSIDE,DAVITA,Profit,2/16/2007,20,TRUE,subpremise,ROOFTOP
84,-122.5327922,37.9723753,552794,17,SAN RAFAEL DIALYSIS,1415 3RD STREET,SAN RAFAEL,CA,94901,MARIN,DAVITA,Profit,12/6/2016,24,TRUE,premise,ROOFTOP
85,-122.298622,38.3236475,52565,17,SILVERADO DIALYSIS,"1100 TRANCAS, SUITE 267",NAPA,CA,94558,NAPA,DAVITA,Profit,10/15/1980,10,TRUE,subpremise,ROOFTOP
86,-122.0857861,37.660414,52845,17,SOUTH HAYWARD DIALYSIS CENTER,254 JACKSON STREET,HAYWARD,CA,94544,ALAMEDA,DAVITA,Profit,4/23/1999,24,TRUE,premise,ROOFTOP
87,-120.5030008,37.3254532,552653,17,SATELLITE DIALYSIS MERCED,3376 NORTH HIGHWAY 59 SUITE I,MERCED,CA,95348,MERCED,SATELLITE HEALTHCARE,Non-Profit,6/16/2010,25,TRUE,subpremise,ROOFTOP
88,-117.1869021,33.746925,552715,18,DAVITA-SUN CITY MENIFEE DIALYSIS,1702 ILLINOIS AVENUE,PERRIS,CA,92571,RIVERSIDE,DAVITA,Profit,11/16/2012,24,TRUE,premise,ROOFTOP
89,-118.3975642,34.186535,52781,18,DAVITA-NORTH HOLLYWOOD DIALYSIS,12126 VICTORY BLVD.,NORTH HOLLYWOOD,CA,91606,LOS ANGELES,DAVITA,Profit,3/11/1996,28,TRUE,street_address,ROOFTOP
90,-121.8370901,38.446077,552570,17,FMC SOLANO COUNTY,"125 NORTH LINCOLN STREET, SUITE B",DIXON,CA,95620,SOLANO,INDEPENDENT,Profit,11/17/2006,12,TRUE,subpremise,ROOFTOP
91,-121.7854767,37.9702347,552680,17,FMC EAST ANTIOCH,2163 COUNTRY HILLS DR,ANTIOCH,CA,94509,CONTRA COSTA,FRESENIUS MEDICAL CARE,Profit,6/27/2011,24,TRUE,premise,ROOFTOP
92,-118.7732902,34.2733412,552601,18,U.S. RENAL CARE SIMI DIALYSIS CENTER,"1407 E. LOS ANGELES AVENUE, SUITE G",SIMI VALLEY,CA,93065,VENTURA,"US RENAL CARE, INC.",Profit,7/31/2008,12,TRUE,subpremise,ROOFTOP
93,-121.7981153,39.7185282,552530,17,SOUTH CHICO DIALYSIS CENTER,2345 FOREST AVENUE,CHICO,CA,95928,BUTTE,DAVITA,Profit,8/11/2004,18,TRUE,premise,ROOFTOP
94,-119.1569676,34.2204957,52762,18,FMC-OXNARD,"1801 HOLSER WALK, SUITE 310",OXNARD,CA,93030,VENTURA,FRESENIUS MEDICAL CARE,Profit,6/12/1995,21,TRUE,subpremise,ROOFTOP
95,-117.9284243,33.6294093,552755,18,FMC-NEWPORT SUPERIOR DIALYSIS CENTER,"510 SUPERIOR AVENUE, SUITE 150",NEWPORT BEACH,CA,92663,ORANGE,FRESENIUS MEDICAL CARE,Profit,3/19/2014,18,TRUE,subpremise,ROOFTOP
96,-121.0046867,37.6436101,552536,17,SATELLITE DIALYSIS  CENTRAL MODESTO,"1315 10TH STREET, SUITE 300",MODESTO,CA,95354,STANISLAUS,SATELLITE HEALTHCARE,Non-Profit,12/17/2004,25,TRUE,subpremise,ROOFTOP
97,-118.5208483,34.1635704,52744,18,DAVITA-SOUTH VALLEY DIALYSIS,"17815 VENTURA BLVD., SUITE 100",ENCINO,CA,91316,LOS ANGELES,DAVITA,Profit,1/1/1994,25,TRUE,subpremise,ROOFTOP
98,-119.5727906,36.7061379,552650,17,SANGER SEQUOIA DIALYSIS CENTER,2517 JENSEN AVENUE BUILDING B,SANGER,CA,93657,FRESNO,DAVITA,Profit,3/10/2010,16,TRUE,subpremise,ROOFTOP
99,-117.1750479,33.6861111,552780,18,DAVITA-MENIFEE HOME DIALYSIS,"29878 HAUN ROAD, SUITE 100",MENIFEE,CA,92586,RIVERSIDE,DAVITA,Profit,9/2/2015,8,TRUE,subpremise,ROOFTOP
100,-118.0721213,33.9476143,52724,18,DAVITA-SFS DIALYSIS,"10012 NORWALK BLVD., SUITE 190",SANTA FE SPRINGS,CA,90670,LOS ANGELES,DAVITA,Profit,6/11/1992,24,TRUE,subpremise,ROOFTOP
101,-116.3627172,33.7467949,52657,18,FMC-RAI-CORPORATE WAY-PALM DESERT,41-501 CORPORATE WAY,PALM DESERT,CA,92260,RIVERSIDE,FRESENIUS MEDICAL CARE,Profit,3/16/1987,21,TRUE,premise,ROOFTOP
102,-117.8635147,34.1275126,552538,18,MOHAN DIALYSIS CENTER OF GLENDORA,638 S. GLENDORA AVENUE,GLENDORA,CA,91740,LOS ANGELES,INDEPENDENT,Profit,10/25/2004,21,TRUE,premise,ROOFTOP
103,-119.8802096,36.8343204,552782,17,FRESNO NORTH HOME TRAINING,6655 N. MILBURN,FRESNO,CA,93722,FRESNO,DAVITA,Profit,3/7/2016,0,TRUE,premise,ROOFTOP
104,-116.4066788,33.761595,52832,18,KIDNEY INSTITUTE AT EISENHOWER MEDICAL CENTER,"PROBST BUILDING 39000 BOB HOPE DRIVE, SUITE 103",RANCHO MIRAGE,CA,92270,RIVERSIDE,INDEPENDENT,Profit,3/25/1998,20,TRUE,doctor,GEOMETRIC_CENTER
105,-121.242863,37.796005,52723,17,MANTECA DIALYSIS CENTER,1620 WEST YOSEMITE AVE,MANTECA,CA,95337,SAN JOAQUIN,DAVITA,Profit,3/10/1992,8,TRUE,street_address,ROOFTOP
106,-118.0660654,34.0666299,552511,18,DAVITA-ROSEMEAD SPRINGS DIALYSIS CENTER,3212 ROSEMEAD BLVD.,EL MONTE,CA,91731,LOS ANGELES,DAVITA,Profit,7/7/2003,16,TRUE,street_address,ROOFTOP
107,-117.892585,34.0887403,52720,18,CITRUS DIALYSIS CENTER,"315 N. THIRD AVENUE, SUITE 104",COVINA,CA,91723,LOS ANGELES,INDEPENDENT,Profit,12/2/1991,22,TRUE,subpremise,ROOFTOP
108,-118.1165197,33.8905428,552588,18,DAVITA-BELLFLOWER DIALYSIS CENTER,15736 WOODRUFF AVENUE,BELLFLOWER,CA,90706,LOS ANGELES,DAVITA,Profit,10/19/2007,20,TRUE,premise,ROOFTOP
109,-116.5462942,33.8371259,52541,18,DAVITA-PALM SPRINGS DIALYSIS,1061 N. INDIAN CANYON DRIVE,PALM SPRINGS,CA,92262,RIVERSIDE,DAVITA,Profit,10/18/1976,20,TRUE,premise,ROOFTOP
110,-121.2897266,38.0027,552592,17,STOCKTON KIDNEY CLINIC,1523 EAST MARCH LANE SUITE 200,STOCKTON,CA,95210,SAN JOAQUIN,DAVITA,Profit,11/28/2007,13,TRUE,subpremise,ROOFTOP
111,-119.8008192,36.2977343,552679,18,DAVITA-LEMOORE DIALYSIS,1345 W. BUSH STREET,LEMOORE,CA,93245,KINGS,DAVITA,Profit,6/30/2011,16,TRUE,premise,ROOFTOP
112,-121.05221,37.709091,552760,17,ARCHWAY DIALYSIS OF MODESTO,3001 HEALTH CARE WAY,MODESTO,CA,95356,STANISLAUS,DAVITA,Profit,7/2/2014,20,TRUE,street_address,ROOFTOP
113,-119.655482,36.3303806,552721,18,DAVITA-SEQUOIA DIALYSIS,440 N. 11TH STREET,HANFORD,CA,93230,KINGS,DAVITA,Profit,4/12/2013,20,TRUE,premise,ROOFTOP
114,-116.9711798,33.802464,52768,18,DAVITA-DIAMOND VALLEY DIALYSIS CENTER,1181 N. STATE ST.,SAN JACINTO,CA,92583,RIVERSIDE,DAVITA,Profit,7/6/1995,12,TRUE,premise,ROOFTOP
115,-118.3430547,33.902919,552744,18,DAVITA-HAWTHORNE DIALYSIS,14204 PRAIRIE AVENUE,HAWTHORNE,CA,90250,LOS ANGELES,DAVITA,Profit,1/24/2014,25,TRUE,premise,ROOFTOP
116,-122.2458023,37.5033454,52793,17,SATELLITE DIALYSIS REDWOOD CITY,1125 INDUSTRIAL RD SUITE G,SAN CARLOS,CA,94070,SAN MATEO,SATELLITE HEALTHCARE,Non-Profit,7/25/1996,25,TRUE,subpremise,ROOFTOP
117,-118.465547,34.1951027,52554,18,DAVITA-VALLEY DIALYSIS CENTER,"6840 SEPULVEDA BLVD, SUITE 101",VAN NUYS,CA,91405,LOS ANGELES,DAVITA,Profit,12/1/1978,23,TRUE,subpremise,ROOFTOP
118,-118.2426575,34.1324944,52632,18,DAVITA-GLENDALE DIALYSIS,1000 E. PALMER AVENUE,GLENDALE,CA,91205,LOS ANGELES,DAVITA,Profit,9/13/1985,20,TRUE,premise,ROOFTOP
119,-117.6747433,33.5944364,552718,18,DAVITA-LAGUNA HILLS DIALYSIS,25332 CABOT ROAD,LAGUNA HILLS,CA,92653,ORANGE,DAVITA,Profit,4/4/2013,22,TRUE,premise,ROOFTOP
120,-118.0003487,33.8313571,552786,18,FMC-ANAHEIM DIALYSIS,"3150 W. LINCOLN AVENUE, SUITE 100",ANAHEIM,CA,92801,ORANGE,FRESENIUS MEDICAL CARE,Profit,6/6/2016,30,TRUE,subpremise,ROOFTOP
121,-122.0469368,37.5944353,52571,17,UNION CITY DIALYSIS CENTER,32930 ALVARADO-NILES ROAD #300,UNION CITY,CA,94587,ALAMEDA,DAVITA,Profit,5/20/1981,38,TRUE,subpremise,ROOFTOP
122,-117.9406284,34.0699594,52847,18,FMC-WEST COVINA KIDNEY CENTER,1540 W. COVINA PARKWAY,WEST COVINA,CA,91790,LOS ANGELES,FRESENIUS MEDICAL CARE,Profit,6/24/1999,20,TRUE,street_address,ROOFTOP
123,-117.6473551,35.620111,52789,18,DAVITA-INDIAN WELLS VALLEY,212 S. RICHMOND ROAD,RIDGECREST,CA,93555,KERN,DAVITA,Profit,6/3/1996,12,TRUE,street_address,ROOFTOP
124,-118.1368862,34.0240068,552585,18,"PERITONEAL DIALYSIS CENTER OF AMERICA, INC.",3112 W. BEVERLY BLVD.,MONTEBELLO,CA,90640,LOS ANGELES,INDEPENDENT,Profit,10/19/2007,0,FALSE,subpremise,ROOFTOP
125,-119.1800257,34.1752935,52860,18,FMC-DIALYSIS SERVICES CHANNEL ISLANDS,"2679 S. SAVIERS ROAD, SUITE B",OXNARD,CA,93033,VENTURA,FRESENIUS MEDICAL CARE,Profit,5/15/2000,20,TRUE,subpremise,ROOFTOP
126,-120.4698758,37.3262019,52584,17,NORTH MERCED DIALYSIS CENTER,"3393 G STREET, BLD A SIUTE A",MERCED,CA,95340,MERCED,DAVITA,Profit,11/8/1982,20,TRUE,subpremise,ROOFTOP
127,-121.05221,37.709091,552765,17,ARCHWAY MODESTO HOME TRAINING,"3001 HEALTH CARE WAY, SUITE 101",MODESTO,CA,95350,STANISLAUS,DAVITA,Profit,7/2/2014,0,TRUE,subpremise,ROOFTOP
128,-118.1226292,34.064615,552666,18,DAVITA-GARFIELD HOME PROGRAM,"228 N. GARFIELD AVENUE, #301",MONTEREY PARK,CA,91754,LOS ANGELES,DAVITA,Profit,11/9/2010,4,FALSE,subpremise,ROOFTOP
129,-117.891788,34.0871062,52726,18,MOHAN DIALYSIS CENTER OF COVINA,158 W. COLLEGE STREET,COVINA,CA,91723,LOS ANGELES,INDEPENDENT,Profit,8/10/1992,18,TRUE,premise,ROOFTOP
130,-122.1416946,37.7129072,52675,17,EAST BAY PERITONEAL DIALYSIS,13939 E 14TH STREET STE 110,SAN LEANDRO,CA,94578,ALAMEDA,DAVITA,Profit,11/4/1988,4,FALSE,subpremise,ROOFTOP
131,-118.5375093,34.2204056,52545,18,U.S. RENAL CARE NORTHRIDGE DIALYSIS,"18546 ROSCOE BLVD., SUITE 108",NORTHRIDGE,CA,91324,LOS ANGELES,"US RENAL CARE, INC.",Profit,8/15/1977,24,TRUE,subpremise,ROOFTOP
132,-122.079628,37.383966,552831,17,DAVITA EL CAMINO DIALYSIS,412 WEST EL CAMINO REAL,MOUNTAIN VIEW,CA,94043,SANTA CLARA,DAVITA,Profit,5/23/2018,24,TRUE,street_address,ROOFTOP
133,-119.0195017,34.2420829,52668,18,FMC-CAMARILLO DIALYSIS CENTER,"3801 LAS POSAS ROAD, SUITE 103",CAMARILLO,CA,93010,VENTURA,FRESENIUS MEDICAL CARE,Profit,2/10/1988,15,TRUE,subpremise,ROOFTOP
134,-121.243745,37.796238,552606,17,YOSEMITE STREET DIALYSIS,1650 WEST YOSEMITE AVENUE,MANTECA,CA,95337,SAN JOAQUIN,DAVITA,Profit,1/7/2009,21,TRUE,street_address,ROOFTOP
135,-117.0447665,32.6889275,52885,18,FMC-DIALYSIS SERVICES OF PARADISE,6919 PARADISE VALLEY ROAD,SAN DIEGO,CA,92139,SAN DIEGO,FRESENIUS MEDICAL CARE,Profit,7/25/2002,20,TRUE,premise,ROOFTOP
136,-117.9399573,34.0729614,52580,18,DAVITA-COVINA DIALYSIS CENTER,1547 W. GARVEY AVENUE NORTH,WEST COVINA,CA,91790,LOS ANGELES,DAVITA,Profit,1/14/1982,17,TRUE,street_address,ROOFTOP
137,-122.0791651,37.3829433,552756,17,WELLBOUND OF MOUNTAIN VIEW,247 WEST EL CAMINO REAL SUITE 200,MOUNTAIN VIEW,CA,94040,SANTA CLARA,SATELLITE DIALYSIS,Non-Profit,6/19/2014,0,TRUE,subpremise,ROOFTOP
138,-118.1452628,34.0176807,552574,18,EAST LOS ANGELES DIALYSIS CENTER,5830 E. WHITTIER BLVD.,EAST LOS ANGELES,CA,90022,LOS ANGELES,INDEPENDENT,Profit,3/5/2007,40,TRUE,street_address,ROOFTOP
139,-120.8873439,37.5316728,552812,17,DAVITA GOLDEN STATE DIALYSIS,4200 N GOLDEN STATE BLVD,TURLOCK,CA,95382,STANISLAUS,DAVITA,Profit,7/10/2017,24,TRUE,street_address,ROOFTOP
140,-121.4655004,38.5638361,52676,17,DCI UNIVERSITY DIALYSIS CLINIC,1771 STOCKTON BLVD,SACRAMENTO,CA,95816,SACRAMENTO,"DIALYSIS CLINIC, INC.",Non-Profit,11/1/1988,24,TRUE,premise,ROOFTOP
141,-117.8720761,33.7883745,52589,18,FMC-UNIVERSITY DIALYSIS CENTER OF ORANGE,1809 W. CHAPMAN AVENUE,ORANGE,CA,92868,ORANGE,FRESENIUS MEDICAL CARE,Non-Profit,7/1/1983,20,TRUE,premise,ROOFTOP
142,-117.9680314,34.0412102,52710,18,"LA PUENTE DIALYSIS CENTER, INC.",14557 TEMPLE AVENUE,LA PUENTE,CA,91744,LOS ANGELES,INDEPENDENT,Profit,4/8/1991,24,TRUE,premise,ROOFTOP
143,-118.0404273,33.7165712,52641,18,DAVITA-HUNTINGTON BEACH DIALYSIS,"16892 BOLSA CHICA AVENUE, SUITE 100",HUNTINGTON BEACH,CA,92649,ORANGE,DAVITA,Profit,2/6/1986,10,TRUE,subpremise,ROOFTOP
144,-117.351059,34.0740531,52334,18,ARROWHEAD REGIONAL MEDICAL CENTER,400 N. PEPPER AVENUE,COLTON,CA,92324,SAN BERNARDINO,INDEPENDENT,Non-Profit,4/28/2006,8,TRUE,street_address,ROOFTOP
145,-118.0694331,33.918038,52718,18,DAVITA-NORWALK DIALYSIS CENTER,12375 E. IMPERIAL HIGHWAY,NORWALK,CA,90650,LOS ANGELES,DAVITA,Profit,11/13/1991,17,TRUE,street_address,ROOFTOP
146,-117.9457985,34.0622719,52868,18,"QUEENS DIALYSIS UNIT, INC.","1135 S. SUNSET AVENUE, SUITE 103",WEST COVINA,CA,91790,LOS ANGELES,INDEPENDENT,Profit,4/23/2001,21,TRUE,subpremise,ROOFTOP
147,-121.0722955,37.7048002,552751,17,WELLBOUND OF NORTH MODESTO,4207 BANGS AVE. SUITE 200,MODESTO,CA,95356,STANISLAUS,SATELLITE DIALYSIS,Non-Profit,3/18/2014,0,TRUE,subpremise,ROOFTOP
148,-122.2589194,37.8403029,52729,17,OAKLAND DIALYSIS CENTER,5354 CLAREMONT AVENUE,OAKLAND,CA,94618,ALAMEDA,DAVITA,Profit,4/23/1993,40,TRUE,premise,ROOFTOP
149,-119.8789347,36.8076784,52608,17,FRESNO DIALYSIS CENTER,"4753 WEST SHAW AVENUE, SUITE 101",FRESNO,CA,93722,FRESNO,DAVITA,Profit,7/20/1984,23,TRUE,subpremise,ROOFTOP
150,-118.1201772,34.0123416,52785,18,DAVITA-DOCTORS DIALYSIS CENTER OF MONTEBELLO,1721 W. WHITTIER BLVD.,MONTEBELLO,CA,90640,LOS ANGELES,DAVITA,Profit,5/3/1996,28,TRUE,premise,ROOFTOP
151,-118.2556896,34.027095,552649,18,DAVITA-CARABELLO DIALYSIS CENTER,757 E. WAHINGTON BLVD.,LOS ANGELES,CA,90021,LOS ANGELES,DAVITA,Profit,1/29/2010,24,TRUE,street_address,ROOFTOP
152,-122.014327,37.3765929,52870,17,SATELLITE DIALYSIS SUNNYVALE,155 NORTH WOLFE RD,SUNNYVALE,CA,94086,SANTA CLARA,SATELLITE HEALTHCARE,Non-Profit,6/4/2001,25,TRUE,street_address,ROOFTOP
153,-121.6709968,36.6868014,552724,17,LAUREL MEADOWS HOME TRAINING,"3 ROSSI CIRCLE, STE B",SALINAS,CA,93907,MONTEREY,DAVITA,Profit,7/2/2013,5,TRUE,subpremise,ROOFTOP
154,-116.953154,33.9298916,552636,18,FMC-RAI-EAST SIXTH STREET-BEAUMONT,1536 E. 6TH STREET,BEAUMONT,CA,92223,RIVERSIDE,FRESENIUS MEDICAL CARE,Profit,9/10/2009,24,TRUE,premise,ROOFTOP
155,-117.9956248,33.7621819,52772,18,FMC-RAI-HOSPITAL CIRCLE-WESTMINSTER,290 HOSPITAL CIRCLE,WESTMINSTER,CA,92683,ORANGE,FRESENIUS MEDICAL CARE,Profit,12/20/1995,16,TRUE,premise,ROOFTOP
156,-117.4713385,33.9029833,52382,18,KAISER FOUNDATION HOSPITAL MEDICAL CTR.- RIVERSIDE,"PERITONEAL DIALYSIS UNIT, 10800 MAGNOLIA AVENUE, MODULE 1X",RIVERSIDE,CA,92505,RIVERSIDE,KAISER PERMANENTE,Non-Profit,11/25/1992,4,FALSE,establishment,ROOFTOP
157,-121.4167848,38.5709934,552549,17,UNIVERSITY DIALYSIS CENTER,333 UNIVERSITY AVENUE,SACRAMENTO,CA,95825,SACRAMENTO,DAVITA,Profit,2/22/2006,21,TRUE,street_address,ROOFTOP
158,-118.4574711,34.2793631,52558,18,HOLY CROSS RENAL CENTER,"14901 RINALDI STREET, SUITE 100",MISSION HILLS,CA,91345,LOS ANGELES,"HEMODIALYSIS, INC.",Profit,12/1/1979,52,TRUE,subpremise,ROOFTOP
159,-118.1405661,34.0247568,552640,18,MONTEBELLO ARTIFICIAL KIDNEY CENTER,3404 W. BEVERLY BLVD.,MONTEBELLO,CA,90640,LOS ANGELES,INDEPENDENT,Profit,9/28/2009,24,TRUE,premise,ROOFTOP
160,-122.469811,37.7011118,552733,17,SATELLITE DIALYSIS DALY CITY,"2001 JUNIPERO SERRA BLVD, SUITE 100",DALY CITY,CA,94014,SAN MATEO,SATELLITE DIALYSIS,Non-Profit,8/14/2013,24,TRUE,subpremise,ROOFTOP
161,-117.2791389,34.1270678,552565,18,SAN BERNARDINO VALLEY HOME DIALYSIS CENTER,"1500 N. WATERMAN AVENUE, SUITE B",SAN BERNARDINO,CA,92404,SAN BERNARDINO,INDEPENDENT,Profit,2/12/2007,0,FALSE,subpremise,ROOFTOP
162,-122.3075648,38.3239197,52615,17,NAPA DIALYSIS CENTER,3900-C BEL AIRE PLAZA #C,NAPA,CA,94558,NAPA,DAVITA,Profit,3/25/1985,20,TRUE,subpremise,ROOFTOP
163,-117.1120981,33.4766589,552838,18,DAVITA - REDHAWK DIALYSIS,"44605 AVENIDA DE MISSIONES, SUITE 100",TEMECULA,CA,92592,RIVERSIDE,DAVITA,Profit,8/1/2018,24,TRUE,subpremise,ROOFTOP
164,-122.753843,38.4219579,52630,17,SATELLITE DIALYSIS SANTA ROSA,2301 CIRCADIAN WAY #C,SANTA ROSA,CA,95407,SONOMA,SATELLITE HEALTHCARE,Non-Profit,9/23/1985,48,TRUE,subpremise,ROOFTOP
165,-122.438474,37.7853143,53523,17,UC CHRONIC DIALYSIS/MT. ZION,1675 SCOTT STREET,SAN FRANCISCO,CA,94115,SAN FRANCISCO,INDEPENDENT,Non-Profit,4/1/2000,14,TRUE,premise,ROOFTOP
166,-114.604954,33.6113138,52812,18,FMC-BLYTHE DESERT DIALYSIS,737 W. HOBSON WAY,BLYTHE,CA,92225,RIVERSIDE,FRESENIUS MEDICAL CARE,Profit,10/9/1997,13,TRUE,subpremise,ROOFTOP
167,-119.3410291,36.2084887,52666,18,DAVITA-TULARE DIALYSIS,545 E. TULARE AVENUE,TULARE,CA,93274,TULARE,DAVITA,Profit,10/5/1987,16,TRUE,premise,ROOFTOP
168,-122.029292,37.9299898,52689,17,WALNUT CREEK DIALYSIS,404 NORTH WIGET LANE,WALNUT CREEK,CA,94598,CONTRA COSTA,DAVITA,Profit,8/25/1989,24,TRUE,street_address,ROOFTOP
169,-122.4605044,37.7249706,52728,17,RAI OCEAN AVENUE,1738 OCEAN AVENUE,SAN FRANCISCO,CA,94112,SAN FRANCISCO,FRESENIUS MEDICAL CARE,Profit,11/5/1992,24,TRUE,street_address,ROOFTOP
170,-117.2708724,34.5426386,52561,18,DAVITA-VICTOR VALLEY DIALYSIS,16049 KAMANA ROAD,APPLE VALLEY,CA,92307,SAN BERNARDINO,DAVITA,Profit,7/30/1980,22,TRUE,premise,ROOFTOP
171,-120.3398755,36.1515057,552726,17,COALINGA DIALYSIS,1147 PHELPS AVE,COALINGA,CA,93210,FRESNO,DAVITA,Profit,7/23/2013,12,TRUE,street_address,RANGE_INTERPOLATED
172,-118.4582319,34.2802893,52633,18,FMC-MISSION HILLS,"11550 INDIAN HILLS ROAD, SUITE 100",MISSION HILLS,CA,91345,LOS ANGELES,FRESENIUS MEDICAL CARE,Profit,10/28/1985,23,TRUE,subpremise,ROOFTOP
173,-118.149297,34.1326581,552734,18,FMC-LIBERTY WEST PASADENA,757 S. RAYMOND AVENUE,PASADENA,CA,91105,LOS ANGELES,FRESENIUS MEDICAL CARE,Profit,8/28/2013,21,TRUE,premise,ROOFTOP
174,-117.3155075,33.181182,52708,18,FMC-NORTH COAST KIDNEY CENTER,"3300 VISTA WAY, SUITE A",OCEANSIDE,CA,92056,SAN DIEGO,FRESENIUS MEDICAL CARE,Profit,3/29/1991,30,TRUE,subpremise,ROOFTOP
175,-118.118097,33.9012466,52880,18,FMC-BELLFLOWER,10116 ROSECRANS AVENUE,BELLFLOWER,CA,90706,LOS ANGELES,FRESENIUS MEDICAL CARE,Profit,1/30/2002,36,TRUE,subpremise,ROOFTOP
176,-120.6118589,37.3435825,52706,17,ATWATER DIALYSIS CENTER,1201 COMMERCE AVE,ATWATER,CA,95301,MERCED,DAVITA,Profit,3/14/1991,10,TRUE,street_address,ROOFTOP
177,-117.9202664,33.752296,552781,18,DAVITA-GARDEN GROVE HARBOR DIALYSIS,13054 NORTH HARBOR BLVD.,GARDEN GROVE,CA,92843,ORANGE,DAVITA,Profit,9/10/2015,24,TRUE,route,GEOMETRIC_CENTER
178,-121.9509106,37.2557822,52694,17,FMC LOS GATOS,14651 SOUTH BASCOM SUITE 100,LOS GATOS,CA,95032,SANTA CLARA,FRESENIUS MEDICAL CARE,Profit,3/26/1990,12,TRUE,subpremise,ROOFTOP
179,-118.3008051,34.0977767,52801,18,DAVITA-HOLLYWOOD DIALYSIS CENTER,5108 SUNSET BLVD.,LOS ANGELES,CA,90027,LOS ANGELES,DAVITA,Profit,4/4/1997,20,TRUE,street_address,ROOFTOP
180,-121.1004139,38.9408686,52614,17,AUBURN DIALYSIS CENTER,3126 PROFESSIONAL DRIVE #100,AUBURN,CA,95603,PLACER,DAVITA,Profit,2/6/1985,16,TRUE,subpremise,ROOFTOP
181,-119.0887436,35.3172993,552521,18,DAVITA-WHITE LANE DIALYSIS,"7701 WHITE LANE, SUITE D",BAKERSFIELD,CA,93309,KERN,DAVITA,Profit,12/23/2003,20,TRUE,subpremise,ROOFTOP
182,-118.2597625,34.0286078,52856,18,DAVITA-WASHINGTON PLAZA DIALYSIS CENTER,516-522 E. WASHINGTON BLVD.,LOS ANGELES,CA,90015,LOS ANGELES,DAVITA,Profit,1/26/2000,24,TRUE,street_address,ROOFTOP
183,-121.6379786,36.655314,52602,17,SALINAS DIALYSIS CENTER,"955 BLANCO CIRCLE, STE. #C",SALINAS,CA,93901,MONTEREY,DAVITA,Profit,10/3/1984,34,TRUE,subpremise,ROOFTOP
184,-118.3747787,34.064415,552783,18,U.S. RENAL CARE BEVERLY HILLS DIALYSIS,8420 WILSHRIE BLVD.,BEVERLY HILLS,CA,90211,LOS ANGELES,"US RENAL CARE, INC.",Profit,4/25/2016,21,TRUE,street_address,ROOFTOP
185,-117.4323266,34.0722811,52380,18,KAISER FOUNDATION HOSPITAL MEDICAL CTR.- FONTANA,"PERITONEAL DIALYSIS UNIT, 9985 SIERRA AVENUE MOB-3",FONTANA,CA,92335,SAN BERNARDINO,KAISER PERMANENTE,Non-Profit,7/24/1991,5,FALSE,street_address,ROOFTOP
186,-121.0046867,37.6436101,552524,17,WELLBOUND OF MODESTO,1315 TENTH STREET #100,MODESTO,CA,95354,STANISLAUS,SATELLITE HEALTHCARE,Non-Profit,7/13/2004,4,TRUE,subpremise,ROOFTOP
187,-119.0214894,34.2423035,552551,18,DAVITA-DIALYSIS CENTER OF CAMARILLO,"2438 N. PONDEROSA DRIVE, SUITE C-101",CAMARILLO,CA,93010,VENTURA,DAVITA,Profit,5/17/2006,18,TRUE,subpremise,ROOFTOP
188,-118.2580748,33.8428167,52687,18,FMC-CARSON,"20710 S. LEAPWOOD AVENUE, SUITE F",CARSON,CA,90746,LOS ANGELES,FRESENIUS MEDICAL CARE,Profit,6/9/1989,11,TRUE,subpremise,ROOFTOP
189,-122.4312619,37.7840686,552736,17,SAN FRANCISCO HOME TRAINING,1493 WEBSTER STREET,SAN FRANCISCO,CA,94115,SAN FRANCISCO,DAVITA,Profit,12/10/2013,0,FALSE,street_address,ROOFTOP
190,-116.2344428,33.7091673,52894,18,FMC-RAI-MONROE-INDIO,"46-767 MONROE STREET, SUITE 101",INDIO,CA,92201,RIVERSIDE,FRESENIUS MEDICAL CARE,Profit,9/11/2002,20,TRUE,subpremise,ROOFTOP
191,-122.2590387,37.8403216,52822,17,OAKLAND PERITONEAL DIALYSIS CENTER,5352 CLAREMONT AVE,OAKLAND,CA,94618,ALAMEDA,DAVITA,Profit,3/10/1998,0,FALSE,street_address,ROOFTOP
192,-117.907187,34.1267208,552573,18,"AZUSA DIALYSIS CENTER, LLC",312 N. AZUSA AVENUE,AZUSA,CA,91702,LOS ANGELES,INDEPENDENT,Profit,3/5/2007,24,TRUE,premise,ROOFTOP
193,-117.9142745,33.9907213,552843,18,DAVTA-ROWLAND HEIGHTS DIALYSIS,"17875 COLIMA RD, SUITE A",CITY OF INDUSTRY,CA,91748,LOS ANGELES,DAVITA,Profit,10/17/2018,32,TRUE,subpremise,ROOFTOP
194,-122.2213806,40.1485283,552557,17,RED BLUFF DIALYSIS,2455 SISTER MARY COLUMBA DRIVE,RED BLUFF,CA,96080,TEHAMA,DAVITA,Profit,7/12/2006,15,TRUE,premise,ROOFTOP
195,-118.185324,33.7802724,52840,18,U.S. RENAL CARE LONG BEACH DIALYSIS,"1045 ATLANTIC AVENUE, SUITE 108",LONG BEACH,CA,90813,LOS ANGELES,"US RENAL CARE, INC.",Profit,12/2/1998,24,TRUE,subpremise,ROOFTOP
196,-117.0992254,32.9396379,552543,18,HOME DIALYSIS THERAPIES OF SAN DIEGO-NORTH,"10672 WEXFORD STREET, SUITE 250",SAN DIEGO,CA,92131,SAN DIEGO,INDEPENDENT,Profit,5/9/2005,1,TRUE,subpremise,ROOFTOP
197,-117.0040706,33.7476844,52620,18,DAVITA-HEMET,3050 W. FLORIDA AVENUE,HEMET,CA,92545,RIVERSIDE,DAVITA,Profit,5/9/1985,28,TRUE,premise,ROOFTOP
198,-117.9336417,33.9269407,552590,18,QUOTIDIAN HOME DIALYSIS CLINIC,"511 S. HARBOR BLVD, SUITE T",LA HABRA,CA,90631,ORANGE,INDEPENDENT,Profit,10/16/2007,2,TRUE,subpremise,ROOFTOP
199,-122.3007416,37.8379279,552539,17,WELLBOUND OF EMERYVILLE,2000 POWELL STREET SUITE 140,EMERYVILLE,CA,94608,ALAMEDA,SATELLITE HEALTHCARE,Non-Profit,3/9/2005,4,TRUE,subpremise,ROOFTOP
200,-118.2261186,33.9879599,552667,18,DAVITA-HUNTINGTON PARK DIALYSIS,5942 RUGBY AVENUE,HUNTINGTON PARK,CA,90255,LOS ANGELES,DAVITA,Profit,1/28/2011,21,TRUE,premise,ROOFTOP
201,-117.2054631,34.0682866,52727,18,FMC-RAI-INDIANA COURT-REDLANDS,1210 INDIANA COURT,REDLANDS,CA,92374,SAN BERNARDINO,FRESENIUS MEDICAL CARE,Profit,10/14/1992,18,TRUE,premise,ROOFTOP
202,-118.3759623,34.0667671,52599,18,DAVITA-BEVERLY HILLS DIALYSIS CENTER,"50 N. LA CIENEGA BLVD., SUITE 300",BEVERLY HILLS,CA,90211,LOS ANGELES,DAVITA,Profit,1/1/1984,30,TRUE,subpremise,ROOFTOP
203,-118.5642234,34.1715144,552508,18,FMC-WOODLAND HILLS DIALYSIS CENTER,"19836 VENTURA BLVD., SUITE C",WOODLAND HILLS,CA,91364,LOS ANGELES,FRESENIUS MEDICAL CARE,Profit,6/4/2003,21,TRUE,subpremise,ROOFTOP
204,-118.1896543,33.8139245,52671,18,DAVITA-UNITED DIALYSIS CENTER,3111 LONG BEACH BLVD.,LONG BEACH,CA,90807,LOS ANGELES,DAVITA,Profit,9/1/1988,26,TRUE,premise,ROOFTOP
205,-117.2666028,34.0728853,552541,18,DAVITA-CITRUS VALLEY DIALYSIS,894 HARDT STREET,SAN BERNARDINO,CA,92408,SAN BERNARDINO,DAVITA,Profit,3/31/2005,20,TRUE,premise,ROOFTOP
206,-117.980088,33.9402935,52884,18,WHITTIER KIDNEY DIALYSIS CENTER,16417 E. WHITTIER BLVD.,WHITTIER,CA,90603,LOS ANGELES,INDEPENDENT,Profit,6/5/2002,29,TRUE,premise,ROOFTOP
207,-120.4441315,34.9173476,52871,18,DAVITA CENTRAL COAST KIDNEY CENTER,2263 S. DEPOT STREET,SANTA MARIA,CA,93455,SANTA BARBARA,DAVITA,Profit,7/17/2001,42,TRUE,premise,ROOFTOP
208,-121.2491011,38.7553646,552788,17,ROSEVILLE HOME THERAPY,"1474 STONE POINT DRIVE, SUITE 105",ROSEVILLE,CA,95661,PLACER,FRESENIUS MEDICAL CARE,Profit,8/4/2016,0,TRUE,subpremise,ROOFTOP
209,-122.3765339,40.5846205,52528,17,REDDING DIALYSIS CENTER,1876 PARK MARINA DRIVE,REDDING,CA,96001,SHASTA,DAVITA,Profit,8/20/1977,28,TRUE,street_address,ROOFTOP
210,-118.137279,34.0524842,52684,18,PERITONEAL DIALYSIS CENTER OF AMERICA-SAN GABRIEL PC,"809 S. ATLANTIC BLVD., SUITE 103",MONTEREY PARK,CA,91754,LOS ANGELES,INDEPENDENT,Profit,7/22/1989,2,FALSE,establishment,ROOFTOP
211,-122.2242176,37.4873573,552665,17,REDWOOD CITY DIALYSIS CENTER,1000 MARSHALL STREET,REDWOOD CITY,CA,94063,SAN MATEO,DAVITA,Profit,11/12/2010,24,TRUE,premise,ROOFTOP
212,-118.3561039,34.0195651,52806,18,"KIDNEY DIALYSIS CENTER OF BALDWIN HILLS, LLC",3705 S. LA BREA AVENUE,LOS ANGELES,CA,90016,LOS ANGELES,"KIDNEY CENTER, INC.",Profit,7/3/1997,17,TRUE,subpremise,ROOFTOP
213,-121.9948512,37.3364844,552737,17,DAVITA SANTA CLARA DIALYSIS CENTER,777 LAWRENCE EXPRESSWAY,SANTA CLARA,CA,95051,SANTA CLARA,DAVITA,Profit,10/24/2013,24,TRUE,premise,ROOFTOP
214,-122.4354438,37.768847,552669,17,DAVIES DIALYSIS,"45 CASTRO STREET, SOUTH TOWER 2ND FLOOR",SAN FRANCISCO,CA,94114,SAN FRANCISCO,DAVITA,Profit,2/1/2011,16,TRUE,subpremise,ROOFTOP
215,-118.2040947,33.9322045,52502,18,DAVITA-KIDNEY DIALYSIS CARE UNIT,3600 E. MARTIN LUTHER KING JR. BLVD.,LYNWOOD,CA,90262,LOS ANGELES,DAVITA,Profit,12/14/1977,40,TRUE,premise,ROOFTOP
216,-117.0842349,32.6388129,552677,18,FMC-BALBOA SOUTH BAY HOME THERAPIES,"340 4TH AVENUE, SUITE 18",CHULA VISTA,CA,91910,SAN DIEGO,FRESENIUS MEDICAL CARE,Profit,5/10/2011,5,TRUE,subpremise,ROOFTOP
217,-122.4760463,37.6752372,52546,17,DALY CITY DIALYSIS CENTER,1498 SOUTHGATE AVENUE,DALY CITY,CA,94015,SAN MATEO,DAVITA,Profit,8/31/1977,34,TRUE,premise,ROOFTOP
218,-121.4320624,38.5000162,52857,17,FLORIN DIALYSIS CENTER,7000 STOCKTON BLVD.,SACRAMENTO,CA,95823,SACRAMENTO,DAVITA,Profit,3/10/2000,31,TRUE,street_address,ROOFTOP
219,-118.3485233,33.8124578,552784,18,U.S. RENAL CARE SOUTH BAY HOME PROGRAM,23441 MADISON STREET #320,TORRANCE,CA,90503,LOS ANGELES,"US RENAL CARE, INC.",Profit,4/1/2016,4,FALSE,subpremise,ROOFTOP
220,-117.9297058,33.7135634,52798,18,FMC-RAI-NEWHOPE-FOUNTAIN VALLEY,"17197 NEWHOPE STREET, SUITE A, B, C & D",FOUNTAIN VALLEY,CA,92708,ORANGE,FRESENIUS MEDICAL CARE,Profit,5/1/1997,24,TRUE,subpremise,ROOFTOP
221,-118.0388722,33.8466838,52627,18,DAVITA-LA PALMA DIALYSIS,"5451 LA PALMA AVENUE, SUITE 35",LA PALMA,CA,90623,ORANGE,DAVITA,Profit,7/11/1985,12,TRUE,subpremise,ROOFTOP
222,-118.5547846,34.3963827,52778,18,NRC-SANTA CLARITA KIDNEY CENTER,"23861 W. MCBEAN PARKWAY, SUITE E-11",VALENCIA,CA,91355,LOS ANGELES,NATIONAL RENAL CARE,Profit,2/19/1996,22,TRUE,subpremise,ROOFTOP
223,-122.1157851,37.6605785,52685,17,HAYWARD DIALYSIS CENTER,21615 HESPERIAN BOULEVARD SUITE F,HAYWARD,CA,94541,ALAMEDA,DAVITA,Profit,10/18/1989,30,TRUE,subpremise,ROOFTOP
224,-117.9561342,34.0867166,552501,18,ADVANCED DIALYSIS CENTER,3932 DOWNING AVENUE,BALDWIN PARK,CA,91706,LOS ANGELES,INDEPENDENT,Profit,3/5/2003,18,TRUE,premise,ROOFTOP
225,-118.1481542,34.6335986,52699,18,HIGH DESERT HEMODIALYSIS,"1007 W. AVENUE M-14, SUITE B",PALMDALE,CA,93551,LOS ANGELES,INDEPENDENT,Profit,9/5/1990,10,TRUE,subpremise,ROOFTOP
226,-122.32677,37.961434,552779,17,DAVITA EL SOBRANTE,3380 SAN PABLO DAM RD STE. C-D,SAN PABLO,CA,94803,CONTRA COSTA,DAVITA,Profit,8/27/2015,20,TRUE,establishment,GEOMETRIC_CENTER
227,-121.5599444,38.5741633,552591,17,WEST SACRAMENTO DIALYSIS CLINIC,3450 INDUSTRIAL BOULEVARD SUITE 100,WEST SACRAMENTO,CA,95691,YOLO,DAVITA,Profit,11/7/2007,21,TRUE,subpremise,ROOFTOP
228,-123.1975192,39.1497692,552689,17,DCI UKIAH,275 S ORCHARD,UKIAH,CA,95482,MENDOCINO,"DIALYSIS CLINIC, INC.",Non-Profit,12/16/2011,14,TRUE,street_address,ROOFTOP
229,-122.2680916,37.8169058,52721,17,RAI PERALTA,2757 TELEGRAPH AVENUE,OAKLAND,CA,94612,ALAMEDA,FRESENIUS MEDICAL CARE,Profit,2/12/1992,27,TRUE,premise,ROOFTOP
230,-116.9731465,32.8085494,52740,18,FMC-RAI-FLETCHER PARKWAY-EL CAJON,858 FLETCHER PARKWAY,EL CAJON,CA,92020,SAN DIEGO,FRESENIUS MEDICAL CARE,Profit,10/1/1987,22,TRUE,subpremise,ROOFTOP
231,-117.9464785,33.83302,552676,18,DAVITA-ANAHEIM WEST DIALYSIS,1821 W. LINCOLN AVENUE,ANAHEIM,CA,92801,ORANGE,DAVITA,Profit,5/17/2011,20,TRUE,subpremise,ROOFTOP
232,-121.8732052,38.0082871,552664,17,DELTA VIEW DIALYSIS CENTER,1150 E LELAND ROAD,PITTSBURG,CA,94565,CONTRA COSTA,DAVITA,Profit,12/17/2010,20,TRUE,premise,ROOFTOP
233,-122.6456591,38.2571597,52624,17,FMC PETALUMA,"715 SOUTH POINT BLVD., SUITE A",PETALUMA,CA,94954,SONOMA,FRESENIUS MEDICAL CARE,Profit,8/14/1985,17,TRUE,subpremise,ROOFTOP
234,-122.1634734,37.7354288,52742,17,RAI E. 14TH,198 EAST 14TH ST,SAN LEANDRO,CA,94577,ALAMEDA,RENAL ADVANTAGE,Profit,1/11/1994,21,TRUE,premise,ROOFTOP
235,-118.1631466,34.6907974,52521,18,DAVITA-ANTELOPE VALLEY DIALYSIS,"1759 W. AVENUE J, SUITE 102",LANCASTER,CA,93534,LOS ANGELES,DAVITA,Profit,8/4/1977,30,TRUE,subpremise,ROOFTOP
236,-122.2320251,37.7814217,52534,17,RAI - EAST BAY - OAKLAND,"2628 INTERNATIONAL BLVD, STE 100",OAKLAND,CA,94601,ALAMEDA,FRESENIUS MEDICAL CARE,Profit,8/15/1977,27,TRUE,subpremise,ROOFTOP
237,-121.4070436,38.4099147,552542,17,RAI ELK GROVE BLVD.,8139 ELK GROVE BOULEVARD SUITE 200,ELK GROVE,CA,95758,SACRAMENTO,RENAL ADVANTAGE,Profit,1/28/2005,24,TRUE,subpremise,ROOFTOP
238,-121.463918,38.4987967,52569,17,SOUTH SACRAMENTO DIALYSIS CENTER,7000 FRANKLIN BLVD. #880,SACRAMENTO,CA,95823,SACRAMENTO,DAVITA,Profit,12/19/1980,18,TRUE,subpremise,ROOFTOP
239,-117.986013,34.1428861,52782,18,"MOUNTAIN VIEW DIALYSIS CENTER, INC.",900 S. MOUNTAIN AVENUE,MONROVIA,CA,91016,LOS ANGELES,INDEPENDENT,Profit,5/1/1996,24,TRUE,premise,ROOFTOP
240,-119.6510464,36.3272526,52628,18,DAVITA-HANFORD DIALYSIS,402 W. EIGHTH STREET,HANFORD,CA,93230,KINGS,DAVITA,Profit,8/5/1985,20,TRUE,premise,ROOFTOP
241,-117.1162262,32.7139776,52799,18,DAVITA-SAN DIEGO SOUTH DIALYSIS,"995 GATEWAY CENTER WAY, SUITE 101",SAN DIEGO,CA,92102,SAN DIEGO,DAVITA,Profit,2/28/1997,17,TRUE,subpremise,ROOFTOP
242,-121.400607,38.6189089,552587,17,WELLBOUND OF SACRAMENTO,2610 EL PASEO LANE SUITE F19,SACRAMENTO,CA,95821,SACRAMENTO,SATELLITE HEALTHCARE,Non-Profit,10/4/2007,4,TRUE,subpremise,ROOFTOP
243,-119.059448,35.3658437,52673,18,DAVITA-BAKERSFIELD DIALYSIS CENTER,5143 OFFICE PARK DRIVE,BAKERSFIELD,CA,93309,KERN,DAVITA,Profit,8/18/1988,76,TRUE,street_address,ROOFTOP
244,-117.4733948,33.8984062,52848,18,FMC-RIVERSIDE,"3470 LA SIERRA AVENUE, SUITE E",RIVERSIDE,CA,92503,RIVERSIDE,FRESENIUS MEDICAL CARE,Profit,7/16/1999,26,TRUE,subpremise,ROOFTOP
245,-118.8641406,34.2781925,552728,18,DAVITA-MOORPARK DIALYSIS CENTER,"883 PATRIOT DRIVE, SUITE C",MOORPARK,CA,93021,VENTURA,DAVITA,Profit,3/21/2013,20,TRUE,subpremise,ROOFTOP
246,-122.110598,37.9930507,52403,17,KAISER PERMANENTE MARTINEZ,"200 MUIR ROAD, HACIENDA BUILDING, SECOND FLOOR",MARTINEZ,CA,94553,CONTRA COSTA,KAISER PERMANENTE,Non-Profit,2/16/2010,0,FALSE,establishment,ROOFTOP
247,-122.2913064,37.8529138,52651,17,US RENAL CARE BERKELEY,2895 7TH STREET,BERKELEY,CA,94710,ALAMEDA,DIVERSIFIED SPECIALTY INSTITUTES (DSI),Profit,12/3/1986,24,TRUE,premise,ROOFTOP
248,-117.213475,32.9214374,552561,18,FMC-LA JOLLA,"4765 CARMEL MOUNTAIN ROAD, SUITE 100",SAN DIEGO,CA,92130,SAN DIEGO,FRESENIUS MEDICAL CARE,Profit,11/27/2006,24,TRUE,subpremise,ROOFTOP
249,-122.1667936,37.7222611,552600,17,WELLBOUND OF SAN LEANDRO,1040 DAVIS STREET SUITE 101,SAN LEANDRO,CA,94577,ALAMEDA,SATELLITE HEALTHCARE,Non-Profit,7/17/2008,0,TRUE,subpremise,ROOFTOP
250,-122.0292324,37.9299255,552611,17,WALNUT CREEK AT HOME,400 N WIGET LANE,WALNUT CREEK,CA,94598,CONTRA COSTA,DAVITA,Profit,10/31/2008,3,TRUE,street_address,RANGE_INTERPOLATED
251,-117.1147555,32.7136667,52678,18,FMC-GATEWAY DIALYSIS CENTER-EAST,"720 GATEWAY CENTER DRIVE, SUITE B",SAN DIEGO,CA,92102,SAN DIEGO,FRESENIUS MEDICAL CARE,Profit,1/20/1989,24,TRUE,subpremise,ROOFTOP
252,-118.1735673,34.0225745,52725,18,DAVITA-DOCTORS DIALYSIS CENTER OF EAST LOS ANGELES,950 S. EASTERN AVENUE,EAST LOS ANGELES,CA,90022,LOS ANGELES,DAVITA,Profit,7/15/1992,32,TRUE,premise,ROOFTOP
253,-118.3008051,34.0977767,52323,18,KAISER FOUNDATION HOSPITAL MEDICAL CTR.- SUNSET,"DIALYSIS UNIT 4700 SUNSET BLVD., 2ND FLOOR",LOS ANGELES,CA,90027,LOS ANGELES,KAISER PERMANENTE,Non-Profit,7/25/1977,30,TRUE,establishment,ROOFTOP
254,-117.160344,33.5290857,52735,18,DAVITA-TEMECULA DIALYSIS CENTER,"40945 COUNTY CENTER DRIVE, SUITE G",TEMECULA,CA,92591,RIVERSIDE,DAVITA,Profit,10/6/1993,18,TRUE,subpremise,ROOFTOP
255,-118.3442772,33.9657419,52882,18,FMC-WEST LOS ANGELES,"301 N. PRAIRIE AVENUE, SUITE 100",INGLEWOOD,CA,90301,LOS ANGELES,FRESENIUS MEDICAL CARE,Profit,3/12/2002,21,TRUE,subpremise,ROOFTOP
256,-118.1868209,33.9669564,52761,18,DAVITA-PREMIER DIALYSIS CENTER,7612 ATLANTIC AVENUE,CUDAHY,CA,90201,LOS ANGELES,DAVITA,Profit,4/11/1995,36,TRUE,premise,ROOFTOP
257,-118.0991663,34.0645101,552583,18,U.S. RENAL CARE ROSEMEAD DIALYSIS,3100 DEL MAR AVENUE,ROSEMEAD,CA,91770,LOS ANGELES,"US RENAL CARE, INC.",Profit,9/24/2007,18,TRUE,premise,ROOFTOP
258,-121.9372923,37.3239305,552738,17,STEVENS CREEK DIALYSIS CENTER,275 DI SALVO AVE,SAN JOSE,CA,95128,SANTA CLARA,DAVITA,Profit,11/26/2013,24,TRUE,premise,ROOFTOP
259,-118.0556581,34.1320309,552787,18,DAVITA-ARCADIA OAKS DIALYSIS,"721 W HUNTINGTON DRIVE, SUITE A-D",ARCADIA,CA,91007,LOS ANGELES,DAVITA,Profit,5/2/2016,20,TRUE,establishment,ROOFTOP
260,-118.3107115,33.7975234,52715,18,U.S. RENAL CARE LOMITA DIALYSIS,1830 LOMITA BLVD.,LOMITA,CA,90717,LOS ANGELES,"US RENAL CARE, INC.",Profit,9/25/1991,21,TRUE,establishment,ROOFTOP
261,-118.1337091,33.9376336,552639,18,DAVITA-IOWA STREET DIALYSIS,"8333 IOWA STREET, SUITE 100",DOWNEY,CA,90241,LOS ANGELES,DAVITA,Profit,9/25/2009,21,TRUE,subpremise,ROOFTOP
262,-121.6340588,39.1614436,52877,17,YUBA SUTTER DIALYSIS,2115 EAST ONSTOTT ROAD,YUBA CITY,CA,95991,SUTTER,AMERICAN RENAL ASSOCIATES,Profit,11/20/2001,21,TRUE,premise,ROOFTOP
263,-120.8497585,37.5014305,552528,17,TURLOCK DIALYSIS CLINIC,50 WEST SYRACUSE AVENUE,TURLOCK,CA,95380,STANISLAUS,DAVITA,Profit,8/25/2004,16,TRUE,premise,ROOFTOP
264,-121.777638,36.930225,52629,17,SATELLITE DIALYSIS,40 PENNY LANE SUITE 1,WATSONVILLE,CA,95076,SANTA CRUZ,SATELLITE HEALTHCARE,Non-Profit,8/29/1985,21,TRUE,subpremise,ROOFTOP
265,-117.3488855,34.0700803,552791,18,DAVITA-COLTON RANCH DIALYSIS,"1405 VALLEY BLVD., SUITE 100",COLTON,CA,92324,SAN BERNARDINO,DAVITA,Profit,4/21/2016,32,TRUE,subpremise,ROOFTOP
266,-122.2665199,37.8605817,52587,17,BERKELEY DIALYSIS CENTER,2655 SHATTUCK AVE,BERKELEY,CA,94704,ALAMEDA,DAVITA,Profit,4/4/1983,23,TRUE,premise,ROOFTOP
267,-122.3099987,37.5480285,552582,17,WELLBOUND OF SAN MATEO,2000 SOUTH EL CAMINO REAL 2ND FLOOR,SAN MATEO,CA,94403,SAN MATEO,SATELLITE HEALTHCARE,Non-Profit,7/12/2007,4,TRUE,subpremise,ROOFTOP
268,-116.9733765,32.6443446,552546,18,HOME DIALYSIS THERAPIES OF SAN DIEGO-SOUTH,"2060 OTAY LAKES ROAD, SUITE 120",CHULA VISTA,CA,91915,SAN DIEGO,INDEPENDENT,Profit,7/13/2005,3,TRUE,subpremise,ROOFTOP
269,-120.937542,37.6111999,552803,17,SATELLITE HEALTHCARE CERES,1372 MITCHELL ROAD,MODESTO,CA,95351,STANISLAUS,SATELLITE HEALTHCARE,Non-Profit,1/9/2017,25,TRUE,street_address,ROOFTOP
270,-117.166135,32.7542698,52818,18,UCSD DIALYSIS CENTER,UCSD DIALYSIS CENTER - 200 W. ARBOR DRIVE,SAN DIEGO,CA,92103,SAN DIEGO,INDEPENDENT,Non-Profit,2/17/1998,18,TRUE,establishment,ROOFTOP
271,-122.3091129,37.9125576,52786,17,EL CERRITO DIALYSIS CENTER,10690 SAN PABLO AVENUE,EL CERRITO,CA,94530,CONTRA COSTA,DAVITA,Profit,4/24/1996,20,TRUE,premise,ROOFTOP
272,-117.1794588,33.5992245,52730,18,DAVITA-MURRIETA,"27602 CLINTON KEITH ROAD, BLDG F",MURRIETA,CA,92562,RIVERSIDE,DAVITA,Profit,5/31/1993,24,TRUE,subpremise,ROOFTOP
273,-121.0357497,37.6713573,52888,17,PARKWAY KIDNEY CENTER,"2200 PLAZA PARKWAY,  SUITE B1-B4",MODESTO,CA,95350,STANISLAUS,INNOVATIVE DIALYSIS SYSTEMS,Profit,9/4/2002,24,TRUE,subpremise,ROOFTOP
274,-121.288922,38.1254127,552576,17,TOKAY HOME DIALYSIS CENTER,777 SOUTH HAM DRIVE SUITE L,LODI,CA,95242,SAN JOAQUIN,DAVITA,Profit,4/19/2007,0,TRUE,subpremise,ROOFTOP
275,-123.7985119,39.4321738,552566,17,FORT BRAGG DIALYSIS DCI,512  CYPRESS STREET,FORT BRAGG,CA,95437,MENDOCINO,"DIALYSIS CLINIC, INC.",Non-Profit,11/15/2006,10,TRUE,premise,ROOFTOP
276,-118.3773761,34.0442567,52809,18,U.S. RENAL CARE WEST LOS ANGELES DIALYSIS,1801 S. LA CIENEGA BLVD.,LOS ANGELES,CA,90035,LOS ANGELES,"US RENAL CARE, INC.",Profit,9/3/1997,22,TRUE,premise,ROOFTOP
277,-121.2867,37.968711,552704,17,SATELLITE DIALYSIS STOCKTON - UNIVERSITY PARK,590 E HARDING WAY,STOCKTON,CA,95204,SAN JOAQUIN,SATELLITE HEALTHCARE,Non-Profit,11/8/2012,25,TRUE,street_address,ROOFTOP
278,-118.5429405,34.3809524,552819,18,"SANTA CLARITA DIALYSIS, LLC",23421 LYONS AVENUE,VALENCIA,CA,91355,LOS ANGELES,INDEPENDENT,Profit,10/16/2017,27,TRUE,street_address,ROOFTOP
279,-121.7004405,37.9385946,552512,17,FMC DIABLO BRENTWOOD,4510 OHARA AVENUE SUITE B,BRENTWOOD,CA,94513,CONTRA COSTA,FRESENIUS MEDICAL CARE,Profit,10/28/2003,18,TRUE,subpremise,ROOFTOP
280,-118.3234102,33.9295042,52670,18,DAVITA-IMPERIAL DIALYSIS,2738 W. IMPERIAL HIGHWAY,INGLEWOOD,CA,90303,LOS ANGELES,DAVITA,Profit,5/19/1988,30,TRUE,subpremise,ROOFTOP
281,-117.6525142,33.5026198,52648,18,DAVITA-SAN JUAN CAPISTRANO SOUTH DIALYSIS,"31736 RANCHO VIEJO ROAD, SUITE B",SAN JUAN CAPISTRANO,CA,92675,ORANGE,DAVITA,Profit,8/1/1986,18,TRUE,subpremise,ROOFTOP
282,-117.2606765,34.0468879,52550,18,LOMA LINDA UNIVERSITY KIDNEY CENTER,11375 ANDERSON STREET,LOMA LINDA,CA,92354,SAN BERNARDINO,INDEPENDENT,Non-Profit,12/2/1977,19,TRUE,premise,ROOFTOP
283,-122.2486385,38.0942566,552572,17,CARQUINEZ DIALYSIS CENTER,125 CORPORATE PLACE SUITE C,VALLEJO,CA,94590,SOLANO,DAVITA,Profit,1/12/2007,21,TRUE,subpremise,ROOFTOP
284,-122.1738746,37.4360801,52390,17,LUCILE PACKARD STANFORD PEDIATRIC DIALYSIS,725 WELCH ROAD PEDIATRIC DIALYSIS  RM 1229,PALO ALTO,CA,94304,SANTA CLARA,INDEPENDENT,Non-Profit,4/13/1995,6,TRUE,subpremise,ROOFTOP
285,-117.8690544,33.7795385,552609,18,SATELLITE HEALTHCARE ORANGE,1518 W. LA VETA AVENUE,ORANGE,CA,92868,ORANGE,SATELLITE HEALTHCARE,Non-Profit,12/29/2008,24,TRUE,premise,ROOFTOP
286,-118.1709137,34.6996678,52890,18,FMC-ANTELOPE VALLEY,"44950 VALLEY CENTRAL WAY, SUITE 108",LANCASTER,CA,93536,LOS ANGELES,FRESENIUS MEDICAL CARE,Profit,11/20/2002,22,TRUE,subpremise,ROOFTOP
287,-122.6416537,38.9622695,552586,17,CLEARLAKE DIALYSIS CENTER,14400 OLYMPIC DRIVE,CLEARLAKE,CA,95422,LAKE,DAVITA,Profit,10/23/2007,12,TRUE,premise,ROOFTOP
288,-119.2356504,34.2559238,52656,18,FMC-VENTURA,"4567 TELEPHONE ROAD, SUITE 101",VENTURA,CA,93003,VENTURA,FRESENIUS MEDICAL CARE,Profit,2/20/1987,27,TRUE,subpremise,ROOFTOP
289,-117.8376909,33.7449012,52861,18,FMC-SOUTH ORANGE COUNTY,"2020 E. FIRST STREET, SUITE 100",SANTA ANA,CA,92705,ORANGE,FRESENIUS MEDICAL CARE,Profit,6/26/2000,26,TRUE,subpremise,ROOFTOP
290,-121.3074526,38.5736123,552519,17,DCI RANCHO DIALYSIS CLINIC,10294 ROCKINGHAM DRIVE,SACRAMENTO,CA,95827,SACRAMENTO,"DIALYSIS CLINIC, INC.",Non-Profit,12/24/2003,16,TRUE,premise,ROOFTOP
291,-118.2933608,33.8926812,52581,18,U.S. RENAL CARE GARDENA DIALYSIS - REDONDO,"1045 W. REDONDO BEACH BLVD., SUITE 105",GARDENA,CA,90247,LOS ANGELES,"US RENAL CARE, INC.",Profit,3/19/1982,17,TRUE,subpremise,ROOFTOP
292,-119.7774818,36.8387255,552645,17,FRESNO AT HOME CENTER,568 E. HERNDON AVENUE SUITE 301,FRESNO,CA,93720,FRESNO,DAVITA,Profit,1/12/2010,0,TRUE,subpremise,ROOFTOP
293,-122.1700815,37.7065113,552720,17,SATELLITE DIALYSIS WEST SAN LEANDRO,2401 MERCED ST SUITE 110,SAN LEANDRO,CA,94577,ALAMEDA,SATELLITE DIALYSIS,Non-Profit,6/19/2013,27,TRUE,subpremise,ROOFTOP
294,-122.1483041,37.4780111,552670,17,SATELLITE DIALYSIS MENLO PARK,1040 HAMILTON COURT,MENLO PARK,CA,94025,SAN MATEO,SATELLITE HEALTHCARE,Non-Profit,3/14/2011,25,TRUE,premise,ROOFTOP
295,-118.1489313,34.0767102,52644,18,FMC-ALHAMBRA,2300 W. VALLEY BLVD.,ALHAMBRA,CA,91803,LOS ANGELES,FRESENIUS MEDICAL CARE,Profit,4/14/1986,20,TRUE,premise,ROOFTOP
296,-116.4594984,33.8243494,552700,18,DAVITA-CATHEDRAL CITY DIALYSIS,30885 DATE PALM DRIVE,CATHEDRAL CITY,CA,92234,RIVERSIDE,DAVITA,Profit,10/17/2011,23,TRUE,subpremise,ROOFTOP
297,-118.2505152,33.8319669,52803,18,DAVITA-CARSON DIALYSIS,1309 E. CARSON STREET,CARSON,CA,90745,LOS ANGELES,DAVITA,Profit,4/23/1997,16,TRUE,premise,ROOFTOP
298,-116.943575,33.9287637,552520,18,DAVITA-BANNING DIALYSIS,6090 W. RAMSEY STREET,BANNING,CA,92220,RIVERSIDE,DAVITA,Profit,1/14/2004,18,TRUE,premise,ROOFTOP
299,-119.3468622,36.3211543,53506,18,KAWEAH DELTA DIALYSIS FACILITY,5040 W. TULARE AVENUE,VISALIA,CA,93277,TULARE,INDEPENDENT,Non-Profit,8/22/1977,26,TRUE,street_address,ROOFTOP
300,-115.5804591,32.7810958,552655,18,FMC-IMPERIAL VALLEY HOME THERAPIES,"2205 W. ROSS AVENUE, SUITE 3",EL CENTRO,CA,92243,IMPERIAL,FRESENIUS MEDICAL CARE,Profit,6/18/2010,0,FALSE,subpremise,ROOFTOP
301,-121.4093322,38.4594016,552683,17,CALVINE DIALYSIS CENTER,8243 E STOCKTON BLVD #100,SACRAMENTO,CA,95828,SACRAMENTO,DAVITA,Profit,7/22/2011,24,TRUE,subpremise,ROOFTOP
302,-118.2163407,34.0456581,552742,18,DAVITA-BOYLE HEIGHTS,1936 EAST 1ST STREET,LOS ANGELES,CA,90033,LOS ANGELES,DAVITA,Profit,10/30/2013,27,TRUE,street_address,ROOFTOP
303,-118.951343,35.3938364,52839,18,DAVITA-NORTHEAST BAKERSFIELD DIALYSIS,3761 MALL VIEW ROAD,BAKERSFIELD,CA,93306,KERN,DAVITA,Profit,12/14/1998,36,TRUE,street_address,ROOFTOP
304,-118.8345093,35.2102129,552753,18,DAVITA-ARVIN DIALYSIS,902 BEAR MOUNTAIN BLVD,ARVIN,CA,93203,KERN,DAVITA,Profit,4/3/2014,16,TRUE,premise,ROOFTOP
305,-117.9371198,33.8474329,52734,18,DAVITA-ANAHEIM DIALYSIS,1341 W. LA PALMA AVENUE,ANAHEIM,CA,92801,ORANGE,DAVITA,Profit,9/27/1993,36,TRUE,premise,ROOFTOP
306,-121.3250031,37.9986088,552523,17,STOCKTON HOME DIALYSIS CENTER,5608 NORTH PERSHING AVE,STOCKTON,CA,95207,SAN JOAQUIN,DAVITA,Profit,7/14/2004,0,FALSE,premise,ROOFTOP
307,-121.1332404,36.2074793,53521,17,MEE MEMORIAL HOSPITAL-DIALYSIS,809 BROADWAY SUITE A,KING CITY,CA,93930,MONTEREY,INDEPENDENT,Non-Profit,3/29/1995,9,TRUE,doctor,ROOFTOP
308,-117.4432473,33.9169078,552678,18,VAN BUREN DIALYSIS,"3595 VAN BUREN BLVD., SUITE 101",RIVERSIDE,CA,92503,RIVERSIDE,INDEPENDENT,Profit,3/17/2011,18,TRUE,subpremise,ROOFTOP
309,-117.2721347,34.0702617,52878,18,FMC-SAN BERNARDINO,"636 E. BRIER DRIVE, SUITE 150",SAN BERNARDINO,CA,92408,SAN BERNARDINO,FRESENIUS MEDICAL CARE,Profit,1/30/2002,21,TRUE,subpremise,ROOFTOP
310,-117.8613171,33.6633563,552789,18,DAVITA-NEWPORT IRVINE DIALYSIS,4300 VON KARMAN,NEWPORT BEACH,CA,92660,ORANGE,DAVITA,Profit,8/17/2016,17,TRUE,premise,ROOFTOP
311,-117.0790864,33.1212886,52525,18,DAVITA-ESCONDIDO DIALYSIS,203 E. SECOND AVENUE,ESCONDIDO,CA,92025,SAN DIEGO,DAVITA,Profit,4/22/1977,19,TRUE,premise,ROOFTOP
312,-119.441139,36.6043917,52612,17,BMA OF CENTRAL VALLEY RURAL DIALYSIS,810 E. MANNING AVE,REEDLEY,CA,93654,FRESNO,FRESENIUS MEDICAL CARE,Profit,2/4/1985,9,TRUE,street_address,ROOFTOP
313,-121.9029513,37.3783992,552712,17,DAVITA SILICON VALLEY HOME TRAINING,"725 RIDDER PARK DR., STE 50",SAN JOSE,CA,95131,SANTA CLARA,DAVITA,Profit,3/12/2013,8,TRUE,subpremise,ROOFTOP
314,-122.0791651,37.3829433,552746,17,SATELLITE DIALYSIS MOUNTAIN VIEW,247 WEST EL CAMINO REAL SUITE 100,MOUNTAIN VIEW,CA,94040,SANTA CLARA,SATELLITE HEALTHCARE,Non-Profit,4/10/2014,25,TRUE,subpremise,ROOFTOP
315,-119.7774191,36.8374091,552702,17,DAVITA HERNDON DIALYSIS CENTER,"560 E HERNDON AVE, STE 101",FRESNO,CA,93720,FRESNO,DAVITA,Profit,9/26/2012,48,TRUE,subpremise,ROOFTOP
316,-121.1611056,37.4755573,552768,17,"INNOVATIVE DIALYSIS OF PATTERSON, LLC","1700 KEYSTONE PACIFIC PARKWAY, SUITE A-1",PATTERSON,CA,95363,STANISLAUS,INNOVATIVE DIALYSIS SYSTEMS,Profit,10/28/2014,16,TRUE,subpremise,ROOFTOP
317,-121.259752,38.7474429,552771,17,DAVITA ROSEVILLE DIALYSIS CENTER,"1836 SIERRA GARDENS DR., SUITE 150",ROSEVILLE,CA,95661,PLACER,DAVITA,Profit,12/5/2014,24,TRUE,subpremise,ROOFTOP
318,-121.2624131,38.7471368,52578,17,RAI HARDING BLVD,1781 SANTA CLARA DRIVE,ROSEVILLE,CA,95661,PLACER,FRESENIUS MEDICAL CARE,Profit,1/15/1982,15,TRUE,premise,ROOFTOP
319,-117.3548676,34.4257587,552626,18,DAVITA-HESPERIA DIALYSIS CENTER,"14135 MAIN STREET, SUITE 501",HESPERIA,CA,92345,SAN BERNARDINO,DAVITA,Profit,6/17/2009,20,TRUE,subpremise,ROOFTOP
320,-121.4598565,38.5960328,552705,17,NORTH SACRAMENTO DIALYSIS CENTER,251 LATHROP WAY,SACRAMENTO,CA,95815,SACRAMENTO,DAVITA,Profit,11/21/2012,24,TRUE,premise,ROOFTOP
321,-120.0591062,36.7343184,552797,17,"KERMAN DIALYSIS CENTER, LLC",14945 WEST WHITEBRIDGE AVENUE,KERMAN,CA,93630,FRESNO,AMERICAN RENAL ASSOCIATES,Profit,9/30/2016,17,TRUE,street_address,RANGE_INTERPOLATED
322,-122.753843,38.4219579,552550,17,WELLBOUND OF SANTA ROSA,2301 CIRCADIAN WAY SUITE B,SANTA ROSA,CA,95407,SONOMA,SATELLITE HEALTHCARE,Non-Profit,2/24/2006,0,TRUE,subpremise,ROOFTOP
323,-119.7110662,34.4285849,52606,18,"SANTA BARBARA ARTIFICIAL KIDNEY CENTER, LLC",1704 STATE STREET,SANTA BARBARA,CA,93101,SANTA BARBARA,INDEPENDENT,Profit,12/3/1984,16,TRUE,premise,ROOFTOP
324,-116.424209,34.119555,52776,18,DAVITA-HI-DESERT DIALYSIS,"56845 TWENTY-NINE PALMS HIGHWAY,",YUCCA VALLEY,CA,92284,SAN BERNARDINO,DAVITA,Profit,2/6/1996,25,TRUE,street_address,ROOFTOP
325,-118.4494405,34.1608751,552507,18,U.S. RENAL CARE SHERMAN OAKS DIALYSIS,"4955 VAN NUYS BLVD., SUITE 111",SHERMAN OAKS,CA,91403,LOS ANGELES,"US RENAL CARE, INC.",Profit,5/14/2003,19,TRUE,subpremise,ROOFTOP
326,-122.0820579,38.2347555,552522,17,RAI CHADBOURNE,490 CHADBOURNE ROAD STE D,FAIRFIELD,CA,94534,SOLANO,FRESENIUS MEDICAL CARE,Profit,3/10/2004,20,TRUE,subpremise,ROOFTOP
327,-117.9138304,33.774997,52617,18,FMC-RAI-GARDEN GROVE BLVD.-GARDEN GROVE,"12555 GARDEN GROVE BLVD., SUITE 100",GARDEN GROVE,CA,92843,ORANGE,FRESENIUS MEDICAL CARE,Profit,1/1/1987,13,TRUE,subpremise,ROOFTOP
328,-118.3501213,33.9599568,52846,18,FMC-INGLEWOOD,"336 E. HILLCREST AVENUE, SUITE 100",INGLEWOOD,CA,90301,LOS ANGELES,FRESENIUS MEDICAL CARE,Profit,6/16/1999,20,TRUE,subpremise,ROOFTOP
329,-121.0290753,39.2198477,52805,17,GRASS VALLEY DIALYSIS CENTER,"36O CROWN POINT CIRCLE, SUITE 210",GRASS VALLEY,CA,95945,NEVADA,DAVITA,Profit,5/2/1997,18,TRUE,establishment,ROOFTOP
330,-118.3789046,33.8533531,52679,18,U.S. RENAL CARE REDONDO BEACH DIALYSIS,514 N. PROSPECT AVENUE,REDONDO BEACH,CA,90277,LOS ANGELES,"US RENAL CARE, INC.",Profit,2/1/1989,7,TRUE,premise,ROOFTOP
331,-117.8781649,34.1280835,552785,18,DAVITA-GLENDORA FOOTHILLS DIALYSIS,"750 WEST ROUTE 66, SUITE Q",GLENDORA,CA,91740,LOS ANGELES,DAVITA,Profit,6/6/2016,24,TRUE,subpremise,ROOFTOP
332,-117.9159754,33.7775997,552527,18,FMC-RAI-HARBOR BLVD.-GARDEN GROVE,"12761 HARBOR BLVD., SUITE I-3",GARDEN GROVE,CA,92840,ORANGE,FRESENIUS MEDICAL CARE,Profit,4/23/2004,25,TRUE,establishment,ROOFTOP
333,-118.0723765,33.9732722,552597,18,DAVITA-SANTA FE SPRINGS DIALYSIS,11147 WASHINGTON BLVD.,WHITTIER,CA,90606,LOS ANGELES,DAVITA,Profit,4/25/2008,16,TRUE,street_address,ROOFTOP
334,-122.2674779,37.8164132,552605,17,RAI OAKLAND HOME PROGRAM 1,2710 TELEGRAPH AVENUE #205,OAKLAND,CA,94612,ALAMEDA,RENAL ADVANTAGE,Profit,7/28/2008,0,TRUE,subpremise,ROOFTOP
335,-118.3019468,34.0620905,552584,18,FMC-DIALYSIS SERVICES OF MID-WILSHIRE,"3545 WILSHIRE BLVD., SUITE 100-103",LOS ANGELES,CA,90010,LOS ANGELES,FRESENIUS MEDICAL CARE,Profit,9/26/2007,17,TRUE,subpremise,ROOFTOP
336,-117.850878,33.7056925,52716,18,DAVITA-SANTA ANA DIALYSIS CENTER,1820 E. DEERE AVENUE,SANTA ANA,CA,92705,ORANGE,DAVITA,Profit,8/17/1977,26,TRUE,premise,ROOFTOP
337,-117.1155368,32.960211,552515,18,DAVITA-CARMEL MOUNTAIN DIALYSIS,"9850 CARMEL MOUNTAIN ROAD,  A-D",SAN DIEGO,CA,92129,SAN DIEGO,DAVITA,Profit,10/31/2003,16,TRUE,establishment,ROOFTOP
338,-117.1932883,33.9106563,52807,18,DAVITA-VALLEY VIEW DIALYSIS,26900 CACTUS AVENUE,MORENO VALLEY,CA,92555,RIVERSIDE,DAVITA,Profit,11/6/1998,34,TRUE,premise,ROOFTOP
339,-117.2807922,34.0611602,552616,18,FMC-LOMA LINDA,"269 E. CAROLINE STREET, SUITE A",SAN BERNARDINO,CA,92408,SAN BERNARDINO,FRESENIUS MEDICAL CARE,Profit,12/10/2008,24,TRUE,subpremise,ROOFTOP
340,-121.4559288,38.5514132,552802,17,BROADWAY DIALYSIS,2624 STOCKTON BOULEVARD,SACRAMENTO,CA,95817,SACRAMENTO,DAVITA,Profit,1/23/2017,34,TRUE,premise,ROOFTOP
341,-118.2987461,33.7901995,552799,18,FMC-SOUTH BAY HOME THERAPY,1223 PACIFIC COAST HIGHWAY,HARBOR CITY,CA,90710,LOS ANGELES,FRESENIUS MEDICAL CARE,Profit,10/18/2016,6,FALSE,street_address,RANGE_INTERPOLATED
342,-121.9790364,37.322465,52514,17,SATELLITE DIALYSIS STEVENS CREEK,4360-A STEVENS CREEK BLVD,SAN JOSE,CA,95129,SANTA CLARA,SATELLITE HEALTHCARE,Non-Profit,8/10/1977,42,TRUE,premise,ROOFTOP
343,-118.4791919,34.0290553,552580,18,DAVITA-MAR VISTA,"2020 SANTA MONICA BLVD., SUITE 100 & 120",SANTA MONICA,CA,90404,LOS ANGELES,DAVITA,Profit,7/18/2007,20,TRUE,subpremise,ROOFTOP
344,-117.9211305,33.8578309,52505,18,DAVITA-FULLERTON DIALYSIS,238 ORANGEFAIR MALL,FULLERTON,CA,92832,ORANGE,DAVITA,Profit,9/27/1993,25,TRUE,street_address,ROOFTOP
345,-118.0813356,33.8556757,52896,18,DAVITA-CERRITOS DIALYSIS,"19222 PIONEER BLVD., SUITE 101",CERRITOS,CA,90703,LOS ANGELES,DAVITA,Profit,1/2/2003,21,TRUE,subpremise,ROOFTOP
346,-117.9994905,33.9452358,552509,18,DAVITA-WHITTIER DIALYSIS CENTER,"10055 WHITTWOOD DRIVE, SUITE A",WHITTIER,CA,90603,LOS ANGELES,DAVITA,Profit,6/16/2003,18,TRUE,subpremise,ROOFTOP
347,-118.2582812,34.1378728,552836,18,FMC-WEST GLENDALE,623 SOUTH CENTRAL AVENUE,GLENDALE,CA,91204,LOS ANGELES,FRESENIUS MEDICAL CARE,Profit,5/23/2018,24,TRUE,premise,ROOFTOP
348,-117.3741163,34.0027037,52532,18,DAVITA-RIVERSIDE DIALYSIS CENTER,"4361 LATHAM STREET, SUITE 100",RIVERSIDE,CA,92501,RIVERSIDE,DAVITA,Profit,11/2/1978,32,TRUE,subpremise,ROOFTOP
349,-118.793531,34.1477941,552824,18,DAVITA-WESTLAKE VILLAGE DIALYSIS,"30730 RUSSELL RANCH ROAD, SUITE A",THOUSAND OAKS,CA,91362,VENTURA,DAVITA,Profit,1/22/2018,21,TRUE,subpremise,ROOFTOP
350,-121.9627305,37.2613303,552743,17,LOS GATOS DIALYSIS CENTER,14251 WINCHESTER BLVD SUITE 100,LOS GATOS,CA,95032,SANTA CLARA,DAVITA,Profit,3/19/2014,16,TRUE,subpremise,ROOFTOP
351,-117.2850171,33.0394865,52756,18,DAVITA-ENCINITAS DIALYSIS,"332 SANTA FE DRIVE, SUITE 100",ENCINITAS,CA,92024,SAN DIEGO,DAVITA,Profit,3/27/1995,15,TRUE,subpremise,ROOFTOP
352,-118.4500705,34.2904431,552778,18,"NRC-SYLMAR DIALYSIS, LLC",12151 SAN FERNANDO RD.,SYLMAR,CA,91342,LOS ANGELES,NATIONAL RENAL CARE,Profit,4/6/2015,32,TRUE,premise,ROOFTOP
353,-121.8348397,37.3156898,552731,17,TULLY HOME TRAINING,1290 TULLY RD SUITE 60,SAN JOSE,CA,95122,SANTA CLARA,DAVITA,Profit,9/30/2013,0,TRUE,subpremise,ROOFTOP
354,-122.4047381,37.7557265,52813,17,SAN FRANCISCO GENERAL HOSPITAL RENAL CENTER,"1001 POTRERO BLDG. 100, ROOM 342",SAN FRANCISCO,CA,94110,SAN FRANCISCO,INDEPENDENT,Non-Profit,11/1/1997,13,TRUE,subpremise,ROOFTOP
355,-121.2936153,38.8699894,552648,17,RAI LINCOLN DIALYSIS,811 STERLING PARKWAY,LINCOLN,CA,95648,PLACER,FRESENIUS MEDICAL CARE,Profit,2/3/2010,21,TRUE,premise,ROOFTOP
356,-117.543181,34.10425,552757,18,DAVITA-RANCHO CUCAMONGA HOME TRAINING,8219 ROCHESTER AVENUE,RANCHO CUCAMONGA,CA,91730,SAN BERNARDINO,DAVITA,Profit,1/23/2014,4,TRUE,street_address,ROOFTOP
357,-121.9168449,37.4565332,552559,17,SATELLITE DIALYSIS,1860 MILMONT DRIVE,MILPITAS,CA,95035,SANTA CLARA,SATELLITE HEALTHCARE,Non-Profit,8/3/2006,24,TRUE,street_address,ROOFTOP
358,-121.3504999,37.9850593,52703,17,RAI WEST MARCH,3115 WEST MARCH LANE SUITE A,STOCKTON,CA,95219,SAN JOAQUIN,FRESENIUS MEDICAL CARE,Profit,11/19/1990,36,TRUE,subpremise,ROOFTOP
359,-122.4209291,37.7869119,552621,17,WELLBOUND OF SAN FRANCISCO,1166 POST STREET #201,SAN FRANCISCO,CA,94109,SAN FRANCISCO,SATELLITE HEALTHCARE,Non-Profit,7/3/2009,0,TRUE,subpremise,ROOFTOP
360,-121.8479437,37.36037,52572,17,SATELLITE DIALYSIS SAN JOSE,2121 ALEXIAN DRIVE,SAN JOSE,CA,95116,SANTA CLARA,SATELLITE HEALTHCARE,Non-Profit,5/25/1981,56,TRUE,premise,ROOFTOP
361,-121.3194022,38.0124891,52784,17,DELTA SIERRA DIALYSIS CENTER,555 WEST BENJAMIN HOLT DRIVE  #200,STOCKTON,CA,95207,SAN JOAQUIN,DAVITA,Profit,4/12/1996,13,TRUE,subpremise,ROOFTOP
362,-118.0807641,34.5798675,52867,18,EAST PALMDALE DIALYSIS CENTER,2710 E. PALMDALE BLVD.,PALMDALE,CA,93550,LOS ANGELES,INDEPENDENT,Profit,5/8/2001,20,TRUE,premise,ROOFTOP
363,-117.7683973,33.6598224,52898,18,FMC-RAI-LAGUNA CANYON-IRVINE,16255 LAGUNA CANYON ROAD,IRVINE,CA,92618,ORANGE,FRESENIUS MEDICAL CARE,Profit,2/19/2003,24,TRUE,premise,ROOFTOP
364,-121.9668183,37.7842456,552842,17,DAVITA SAN RAMON VALLEY HOME TRAINING,1320 EL CAPITAN DR STE 210,DANVILLE,CA,94526,CONTRA COSTA,DAVITA,Profit,10/25/2018,0,TRUE,subpremise,ROOFTOP
365,-119.0995374,35.3417473,552562,18,FMC-BAKERSFIELD,"8625 LIBERTY PARK DRIVE, SUITE 102",BAKERSFIELD,CA,93311,KERN,FRESENIUS MEDICAL CARE,Profit,11/29/2006,25,TRUE,subpremise,ROOFTOP
366,-118.1890145,33.8257227,552614,18,DAVITA-BIXBY KNOLLS DIALYSIS,3744 LONG BEACH BLVD.,LONG BEACH,CA,90807,LOS ANGELES,DAVITA,Profit,9/29/2008,23,TRUE,premise,ROOFTOP
367,-119.3902688,36.5491298,552740,18,DAVITA-DINUBA DIALYSIS,510 E NORTH WAY,DINUBA,CA,93618,TULARE,DAVITA,Profit,11/19/2013,20,TRUE,premise,ROOFTOP
368,-118.4048156,34.232548,552777,18,"LAUREL CANYON DIALYSIS, LLC",8987 LAUREL CANYON BLVD.,SUN VALLEY,CA,91352,LOS ANGELES,INDEPENDENT,Profit,4/8/2015,30,TRUE,street_address,ROOFTOP
369,-121.9337045,37.3155593,52305,17,SANTA CLARA VALLEY RENAL CARE CENTER,2220 MOORPARK AVENUE,SAN JOSE,CA,95128,SANTA CLARA,INDEPENDENT,Non-Profit,8/22/1977,25,TRUE,premise,ROOFTOP
370,-118.8842103,34.2067924,52579,18,FMC-CONEJO VALLEY RENAL CENTER,"227 W. JANSS ROAD, SUITE 115",THOUSAND OAKS,CA,91360,VENTURA,FRESENIUS MEDICAL CARE,Profit,1/14/1982,15,TRUE,subpremise,ROOFTOP
371,-117.8363208,33.7643952,52897,18,DAVITA-TUSTIN DIALYSIS CENTER,"2090 N. TUSTIN AVENUE, SUITE 100",SANTA ANA,CA,92705,ORANGE,DAVITA,Profit,2/21/2003,24,TRUE,subpremise,ROOFTOP
372,-118.0604168,33.8035957,552691,18,DAVITA-LOS ALAMITOS DIALYSIS,4141 KATELLA AVENUE,LOS ALAMITOS,CA,90720,ORANGE,DAVITA,Profit,9/16/2011,24,TRUE,street_address,ROOFTOP
373,-115.5550169,32.7925654,52690,18,FMC-EL CENTRO DESERT VALLEY DIALYSIS CENTER,110 S. FIFTH STREET,EL CENTRO,CA,92243,IMPERIAL,FRESENIUS MEDICAL CARE,Profit,10/31/1989,20,TRUE,premise,ROOFTOP
374,-121.8348397,37.3156898,552723,17,TULLY DIALYSIS CENTER,1290 TULLY RD SUITE 80,SAN JOSE,CA,95122,SANTA CLARA,DAVITA,Profit,7/26/2013,32,TRUE,subpremise,ROOFTOP
375,-122.0497409,37.9805773,552535,17,CONCORD DIALYSIS CENTER,2300 STANWELL DRIVE SUITE C,CONCORD,CA,94520,CONTRA COSTA,DAVITA,Profit,11/14/2004,21,TRUE,subpremise,ROOFTOP
376,-117.1045059,32.6590703,52536,18,FMC-NATIONAL CITY DIALYSIS CENTER,303 W. 26TH STREET,NATIONAL CITY,CA,91950,SAN DIEGO,FRESENIUS MEDICAL CARE,Profit,1/1/1991,22,TRUE,premise,ROOFTOP
377,-117.6682811,34.0849654,552596,18,"ONTARIO DIALYSIS, INC.","1001 W. SIXTH STREET, SUITE A",ONTARIO,CA,91762,SAN BERNARDINO,INDEPENDENT,Profit,3/7/2008,32,TRUE,subpremise,ROOFTOP
378,-117.543168,34.1039631,552675,18,HOME DIALYSIS CENTERS OF RANCHO CUCAMONGA,"8239 ROCHESTER AVENUE, SUITE 110",RANCHO CUCAMONGA,CA,91730,SAN BERNARDINO,INDEPENDENT,Profit,10/21/2010,2,TRUE,subpremise,ROOFTOP
379,-118.2530734,34.1278156,52859,18,DAVITA-WEST GLENDALE DIALYSIS,1427 S. GLENDALE AVENUE,GLENDALE,CA,91205,LOS ANGELES,DAVITA,Profit,4/25/2000,19,TRUE,premise,ROOFTOP
380,-122.6353842,38.2539809,552849,17,DAVITA PETALUMA RIVER DIALYSIS,"417 N MCDOWELL BLVD, SUITE 30",PETALUMA,CA,94954,SONOMA,DAVITA,Profit,1/17/2019,24,TRUE,subpremise,ROOFTOP
381,-119.7305236,36.8348743,552646,17,FMC NORTH FRESNO DIALYSIS,6737 N. WILLOW BLDG C,FRESNO,CA,93710,FRESNO,FRESENIUS MEDICAL CARE,Profit,12/7/2009,20,TRUE,subpremise,ROOFTOP
382,-118.4579383,34.4025228,552547,18,"NRC-CANYON COUNTRY DIALYSIS CENTER, LLC","18520 VIA PRINCESSA, BUILDING C-1",CANYON COUNTRY,CA,91387,LOS ANGELES,NATIONAL RENAL CARE,Profit,9/14/2005,15,TRUE,subpremise,ROOFTOP
383,-121.8223649,37.704306,552638,17,LIVERMORE DIALYSIS CENTER,3201 DOOLAN ROAD SUITE 175,LIVERMORE,CA,94551,ALAMEDA,DAVITA,Profit,2/3/2010,24,TRUE,subpremise,ROOFTOP
384,-121.98953,38.358057,552510,17,CREEKSIDE DIALYSIS CENTER,141 PARKER STREET,VACAVILLE,CA,95688,SOLANO,DAVITA,Profit,8/6/2003,12,TRUE,street_address,ROOFTOP
385,-118.3773804,34.0442663,52384,18,KAISER FOUNDATION HOSPITAL MEDICAL CTR.- WEST LOS ANGELES,"DIALYSIS UNIT 6041 CADILLAC AVENUE, SUITE 442",LOS ANGELES,CA,90034,LOS ANGELES,KAISER PERMANENTE,Non-Profit,4/26/1993,3,FALSE,establishment,ROOFTOP
386,-120.4614213,37.3317033,552647,17,MERCED EAST DIALYSIS,464 EAST YOSEMITE AVENUE STE B,MERCED,CA,95340,MERCED,DAVITA,Profit,12/9/2009,12,TRUE,subpremise,ROOFTOP
387,-121.8634389,36.5957655,52583,17,MONTEREY PENINSULA DIALYSIS,2066 NORTH FREMONT BLVD,MONTEREY,CA,93940,MONTEREY,INNOVATIVE DIALYSIS SYSTEMS,Profit,8/5/1982,18,TRUE,premise,ROOFTOP
388,-118.1499504,33.8617112,52788,18,DAVITA-NEPHRON DIALYSIS,5820 DOWNEY AVENUE,LONG BEACH,CA,90805,LOS ANGELES,DAVITA,Profit,8/8/1996,21,TRUE,street_address,ROOFTOP
389,-118.2910238,34.0976068,52321,18,CHILDRENS HOSPITAL OF LOS ANGELES,"DIVISION OF NEPHROLOGY (DIALYSIS) 4650 SUNSET BLVD., BOX 40",LOS ANGELES,CA,90027,LOS ANGELES,INDEPENDENT,Non-Profit,7/28/1977,10,TRUE,street_address,ROOFTOP
390,-122.0944849,37.6320613,52398,17,KAISER HOSPITAL ESRD PD UNIT,27303 SLEEPY HOLLOW,HAYWARD,CA,94545,ALAMEDA,KAISER PERMANENTE,Non-Profit,3/18/2005,0,FALSE,premise,ROOFTOP
391,-118.2821511,34.0117238,52713,18,DAVITA-UNIVERSITY PARK DIALYSIS CENTER,3986 S. FIGUEROA STREET,LOS ANGELES,CA,90037,LOS ANGELES,DAVITA,Profit,6/7/1991,20,TRUE,street_address,ROOFTOP
392,-122.3262078,37.5650427,552682,17,DAVITA MILLS DIALYSIS,100 SOUTH SAN MATEO DRIVE,SAN MATEO,CA,94401,SAN MATEO,DAVITA,Profit,7/1/2011,19,TRUE,premise,ROOFTOP
393,-118.2154268,34.2050166,552662,18,U.S. RENAL CARE VERDUGO HILLS DIALYSIS,"1808 VERDUGO BLVD., SUITE 200",GLENDALE,CA,91208,LOS ANGELES,"US RENAL CARE, INC.",Profit,8/30/2010,25,TRUE,subpremise,ROOFTOP
394,-118.2308703,34.1500714,552589,18,DAVITA-NORTH GLENDALE,"1505 WILSON TERRACE, SUITE 190",GLENDALE,CA,91206,LOS ANGELES,DAVITA,Profit,12/14/2007,36,TRUE,subpremise,ROOFTOP
395,-118.1422118,33.8845064,552694,18,DAVITA-ARTESIA HOME TRAINING,"16506 LAKEWOOD BLVD, SUITE 100",BELLFLOWER,CA,90706,LOS ANGELES,DAVITA,Profit,11/30/2011,8,FALSE,subpremise,ROOFTOP
396,-118.358746,33.8404482,52701,18,U.S. RENAL CARE EARL STREET DIALYSIS,"20911 EARL STREET, SUITE 160",TORRANCE,CA,90503,LOS ANGELES,"US RENAL CARE, INC.",Profit,11/2/1990,9,TRUE,subpremise,ROOFTOP
397,-121.9974591,37.3363342,52392,17,KAISER PERMANENTE - SANTA CLARA,710 LAWRENCE EXPRESSWAY #460,SANTA CLARA,CA,95051,SANTA CLARA,KAISER PERMANENTE,Non-Profit,6/20/1996,0,FALSE,subpremise,ROOFTOP
398,-122.3901304,37.7663741,53501,17,PEDIATRIC DIALYSIS UNIT AT UCSF,"1825 4TH STREET, ROOM M5209",SAN FRANCISCO,CA,94143,SAN FRANCISCO,INDEPENDENT,Non-Profit,8/9/1977,5,TRUE,subpremise,ROOFTOP
399,-117.2681168,33.9122254,552599,18,DAVITA-MORENO VALLEY,"22620 GOLDENCREST DRIVE, SUITE 101-103",MORENO VALLEY,CA,92553,RIVERSIDE,DAVITA,Profit,6/27/2008,24,TRUE,subpremise,ROOFTOP
400,-121.7927752,37.3166387,552643,17,ABORN DIALYSIS CENTER,3162 S WHITE ROAD,SAN JOSE,CA,95148,SANTA CLARA,DAVITA,Profit,3/2/2010,18,TRUE,premise,ROOFTOP
401,-117.8859473,33.7100153,552775,18,FMC-SANTA ANA DIALYSIS,"2740 S. BRISTOL STREET, SUITE 110",SANTA ANA,CA,92704,ORANGE,FRESENIUS MEDICAL CARE,Profit,3/5/2015,24,TRUE,subpremise,ROOFTOP
402,-118.3541617,33.8653127,552833,18,U.S. RENAL CARE SOUTH BAY DIALYSIS,4450 182ND STREET,REDONDO BEACH,CA,90278,LOS ANGELES,"US RENAL CARE, INC.",Profit,5/2/2018,14,TRUE,street_address,ROOFTOP
403,-118.1805599,33.9419361,552821,18,DAVITA-SOUTH GATE DIALYSIS,9848 ATLANTIC AVENUE,SOUTH GATE,CA,90280,LOS ANGELES,DALLAS COUNTY HOSPITAL DISTRICT,Profit,10/18/2017,25,TRUE,premise,ROOFTOP
404,-121.2861169,38.0034569,552577,17,SATELLITE DIALYSIS OF STOCKTON,1801 EAST MARCH LANE SUITE A100,STOCKTON,CA,95210,SAN JOAQUIN,SATELLITE HEALTHCARE,Non-Profit,5/23/2007,25,TRUE,subpremise,ROOFTOP
405,-120.7228705,35.5546888,552567,18,DAVITA-TEMPLETON DIALYSIS,"1310 LAS TABLAS ROAD, SUITE 101",TEMPLETON,CA,93465,SAN LUIS OBISPO,DAVITA,Profit,12/6/2006,16,TRUE,subpremise,ROOFTOP
406,-120.8547842,37.0671291,52738,17,LOS BANOS DIALYSIS CENTER,"60 G STREET, BUILDING D",LOS BANOS,CA,93635,MERCED,DAVITA,Profit,7/2/1993,11,TRUE,subpremise,ROOFTOP
407,-117.6086875,34.032542,52404,18,KAISER FOUNDATION HOSPITAL MEDICAL CTR.- ONTARIO,2295 SOUTH VINEYARD AVENUE,ONTARIO,CA,91761,SAN BERNARDINO,KAISER PERMANENTE,Non-Profit,8/6/2014,5,FALSE,street_address,ROOFTOP
408,-121.8682245,38.010311,52757,17,FMC DIABLO CENTRAL PITTSBURG,2155 LOVERIDGE ROAD,PITTSBURG,CA,94565,CONTRA COSTA,FRESENIUS MEDICAL CARE,Profit,1/1/1995,15,TRUE,premise,ROOFTOP
409,-116.3033827,33.7661321,552840,18,DAVITA-DESERT SANDS HOME TRAINING,78030 WILDCAT DR. STE 102,PALM DESERT,CA,92211,RIVERSIDE,SULA DIALYSIS,Profit,5/8/2018,5,FALSE,subpremise,ROOFTOP
410,-117.5359862,33.849772,52661,18,DAVITA-CORONA DIALYSIS CENTER,"2057 COMPTON AVENUE, #101",CORONA,CA,92881,RIVERSIDE,DAVITA,Profit,8/18/1987,24,TRUE,subpremise,ROOFTOP
411,-119.1550464,36.2970047,552594,18,DAVITA-EXETER DIALYSIS,"1116 W. VISALIA ROAD, SUITE 106",EXETER,CA,93221,TULARE,DAVITA,Profit,3/5/2008,12,TRUE,subpremise,ROOFTOP
412,-118.0995116,34.580052,52869,18,DAVITA-PALMDALE REGIONAL DIALYSIS,1643 E. PALMDALE BLVD.,PALMDALE,CA,93550,LOS ANGELES,DAVITA,Profit,7/3/2001,24,TRUE,premise,ROOFTOP
413,-121.5997186,39.1444965,552533,17,MARYSVILLE DIALYSIS CENTER,1015 8TH STREET,MARYSVILLE,CA,95901,YUBA,DAVITA,Profit,11/12/2004,15,TRUE,premise,ROOFTOP
414,-118.5364103,34.2398243,552674,18,NRC-NORTHRIDGE DIALYSIS CENTER,9325 RESEDA BLVD.,NORTHRIDGE,CA,91324,LOS ANGELES,NATIONAL RENAL CARE,Profit,4/6/2011,22,TRUE,premise,ROOFTOP
415,-117.6753391,33.6190263,552595,18,FMC-MISSION VIEJO,"23681 VIA LINDA, SUITE E",MISSION VIEJO,CA,92691,ORANGE,FRESENIUS MEDICAL CARE,Profit,3/21/2008,18,TRUE,subpremise,ROOFTOP
416,-117.0927848,33.0116796,552516,18,FMC-RANCHO,"11031 VIA FRONTERA, SUITE C",SAN DIEGO,CA,92127,SAN DIEGO,FRESENIUS MEDICAL CARE,Profit,10/31/2003,16,TRUE,subpremise,ROOFTOP
417,-117.6991415,34.0878796,52804,18,DAVITA-MONTCLAIR DIALYSIS CENTER,9142 MONTE VISTA AVE,MONTCLAIR,CA,91763,SAN BERNARDINO,DAVITA,Profit,5/23/1997,30,TRUE,street_address,ROOFTOP
418,-117.7514936,34.0861955,52591,18,DAVITA-POMONA DIALYSIS,2111 N. GAREY AVENUE,POMONA,CA,91767,LOS ANGELES,DAVITA,Profit,7/15/1983,32,TRUE,premise,ROOFTOP
419,-121.4855174,38.4276486,552604,17,WEST ELK GROVE DIALYSIS CENTER,2208 KAUSEN DRIVE SUITE 100,ELK GROVE,CA,95758,SACRAMENTO,DAVITA,Profit,8/27/2008,22,TRUE,subpremise,ROOFTOP
420,-122.2660534,37.8219981,552717,17,SATELLITE DIALYSIS OAKLAND,3330 TELEGRAPH AVE,OAKLAND,CA,94609,ALAMEDA,SATELLITE DIALYSIS,Non-Profit,6/5/2013,27,TRUE,premise,ROOFTOP
421,-119.095706,35.366219,552823,18,DAVITA-CASA DEL RIO HOME TRAINING,"8331 BRIMHALL ROAD BUILDING 900, SUITE 902",BAKERSFIELD,CA,93312,KERN,DAVITA,Profit,2/26/2018,8,TRUE,subpremise,ROOFTOP
422,-122.0196793,37.5390528,52797,17,FMC ARDENWOOD,37478 CEDAR BLVD STE A,NEWARK,CA,94560,ALAMEDA,FRESENIUS MEDICAL CARE,Profit,1/31/1997,12,TRUE,subpremise,ROOFTOP
423,-122.4257994,37.6417848,52874,17,SATELLITE HEALTHCARE SOUTH SAN FRANCISCO,205 KENWOOD WAY,SOUTH SAN FRANCISCO,CA,94080,SAN MATEO,SATELLITE HEALTHCARE,Non-Profit,1/16/2002,24,TRUE,premise,ROOFTOP
424,-122.7916103,38.5174777,552503,17,FMC SANTA  ROSA NORTH,487 AVIATION BLVD. SUITE 110,SANTA ROSA,CA,95403,SONOMA,FRESENIUS MEDICAL CARE,Profit,2/5/2003,13,TRUE,subpremise,ROOFTOP
425,-121.8914628,37.2454387,552827,17,SATELLITE HEALTHCARE BLOSSOM VALLEY,1450 KOOSER ROAD,SAN JOSE,CA,95118,SANTA CLARA,SATELLITE HEALTHCARE,Non-Profit,4/4/2018,25,TRUE,street_address,ROOFTOP
426,-122.9218869,39.0493054,52601,17,LAKEPORT DIALYSIS CENTER,804 ELEVENTH STREET,LAKEPORT,CA,95453,LAKE,DAVITA,Profit,9/17/1984,12,TRUE,street_address,ROOFTOP
427,-118.2652246,34.0368416,552526,18,U.S. RENAL CARE GRAND AVENUE DIALYSIS,"1400 S. GRAND AVENUE, SUITE 105",LOS ANGELES,CA,90015,LOS ANGELES,"US RENAL CARE, INC.",Profit,5/10/2004,20,TRUE,subpremise,ROOFTOP
428,-117.4715121,33.9027488,552617,18,DAVITA-MAGNOLIA WEST AT HOME,"3660 PARK SIERRA DRIVE, SUITE 103",RIVERSIDE,CA,92505,RIVERSIDE,DAVITA,Profit,4/17/2009,2,TRUE,subpremise,ROOFTOP
429,-121.2898384,37.975382,52705,17,RAI NORTH CALIFORNIA,2350 N CALIFORNIA STREET,STOCKTON,CA,95204,SAN JOAQUIN,RENAL ADVANTAGE,Profit,2/26/1991,15,TRUE,premise,ROOFTOP
430,-117.9271788,33.6208104,52881,18,NEWPORT BEACH DIALYSIS,"3333 W. COAST HIGHWAY, SUITE 101",NEWPORT BEACH,CA,92663,ORANGE,RENAL RESEARCH INSTITUTE,Profit,4/1/1999,16,TRUE,subpremise,ROOFTOP
431,-117.3229917,34.1313164,552830,18,DAVITA-SERRANO DIALYSIS,1800 MEDICAL CENTER DR. SUITE 150,SAN BERNARDINO,CA,92411,SAN BERNARDINO,DAVITA,Profit,4/18/2018,24,TRUE,subpremise,ROOFTOP
432,-122.3432114,37.961484,52560,17,SAN PABLO DIALYSIS CENTER,14020 SAN PABLO AVENUE,SAN PABLO,CA,94806,CONTRA COSTA,DAVITA,Profit,4/25/1980,22,TRUE,premise,ROOFTOP
433,-116.93689,32.8012328,52780,18,FMC-BALBOA EAST COUNTY,570 N. SECOND STREET,EL CAJON,CA,92021,SAN DIEGO,FRESENIUS MEDICAL CARE,Profit,2/19/1996,24,TRUE,street_address,ROOFTOP
434,-119.1479912,34.2200656,552684,18,DAVITA-OXNARD DIALYSIS CENTER,1900 OUTLET CENTER DR.,OXNARD,CA,93036,VENTURA,DAVITA,Profit,9/21/2011,20,TRUE,premise,ROOFTOP
435,-117.4208563,34.1073055,52682,18,DAVITA-FONTANA DIALYSIS,17590 FOOTHILL BLVD.,FONTANA,CA,92335,SAN BERNARDINO,DAVITA,Profit,6/26/1989,28,TRUE,premise,ROOFTOP
436,-118.4503636,34.2211729,52827,18,U.S. RENAL CARE PANORAMA CITY DIALYSIS,14600 ROSCOE BLVD.,PANORAMA CITY,CA,91402,LOS ANGELES,"US RENAL CARE, INC.",Profit,4/27/1998,36,TRUE,premise,ROOFTOP
437,-120.382675,37.991843,52609,17,SATELLITE DIALYSIS SONORA,136 EAST COLUMBIA WAY,SONORA,CA,95370,TUOLUMNE,SATELLITE HEALTHCARE,Non-Profit,11/5/1984,9,TRUE,street_address,ROOFTOP
438,-117.1548758,32.8129092,52576,18,FMC-BALBOA KEARNY MESA DIALYSIS CENTER,"7927 OSTROW STREET, SUITE A",SAN DIEGO,CA,92111,SAN DIEGO,FRESENIUS MEDICAL CARE,Profit,12/1/1987,28,TRUE,subpremise,ROOFTOP
439,-118.5548338,34.2320127,552853,18,NORTHRIDGE KIDNEY CARE CENTER,19333 BUSINESS CENTER DRIVE,NORTHRIDGE,CA,91324,LOS ANGELES,INDEPENDENT,Profit,12/13/2018,0,TRUE,premise,ROOFTOP
440,-117.3306592,34.5230214,552834,18,DAVITA-VISTA DEL SOL DIALYSIS,15002 AMARGOSA ROAD,VICTORVILLE,CA,92394,SAN BERNARDINO,DAVITA,Profit,5/16/2018,25,TRUE,premise,ROOFTOP
441,-119.0276936,36.0709466,52401,18,SIERRA VIEW DISTRICT HOSPITAL DIALYSIS CENTER,283 N. PEARSON DRIVE,PORTERVILLE,CA,93257,TULARE,INDEPENDENT,Non-Profit,8/15/2007,32,TRUE,street_address,ROOFTOP
442,-122.469811,37.7011118,552719,17,WELLBOUND OF DALY CITY,2001 JUNIPERO SERRA BLVD,DALY CITY,CA,94014,SAN MATEO,SATELLITE DIALYSIS,Non-Profit,6/12/2013,4,TRUE,premise,ROOFTOP
443,-117.3637133,34.4663388,552770,18,DESERT CITIES DIALYSIS-AMETHYST,11883 AMETHYST ROAD,VICTORVILLE,CA,92392,SAN BERNARDINO,INDEPENDENT,Profit,9/5/2014,26,TRUE,premise,ROOFTOP
444,-116.962522,32.6560138,552745,18,FMC-EAST LAKES,2391 BOSWELL ROAD,CHULA VISTA,CA,91914,SAN DIEGO,FRESENIUS MEDICAL CARE,Profit,3/28/2014,25,TRUE,premise,ROOFTOP
445,-117.9297058,33.7135634,552693,18,FMC-RAI-FOUNTAIN VALLEY HOME,"17197 NEWHOPE STREET, SUITE E",FOUNTAIN VALLEY,CA,92708,ORANGE,FRESENIUS MEDICAL CARE,Profit,11/28/2011,3,TRUE,subpremise,ROOFTOP
446,-118.5913784,34.1769157,552835,18,DAVITA-WARNER CENTER DIALYSIS,21040 CALIFA ST SUITE A,WOODLAND HILLS,CA,91367,LOS ANGELES,DAVITA,Profit,5/21/2018,24,TRUE,subpremise,ROOFTOP
447,-121.4777082,38.6469734,552739,17,SATELLITE HEALTHCARE SACRAMENTO,646 N. MARKET BLVD,SACRAMENTO,CA,95834,SACRAMENTO,SATELLITE DIALYSIS,Non-Profit,12/20/2013,29,TRUE,premise,ROOFTOP
448,-120.840159,37.5087314,52647,17,SATELLITE DIALYSIS TURLOCK,1729 NORTH OLIVE #9,TURLOCK,CA,95382,STANISLAUS,SATELLITE HEALTHCARE,Non-Profit,3/20/1986,25,TRUE,subpremise,ROOFTOP
449,-117.7469367,34.0975963,552837,18,"POMONA DIALYSIS CENTER, INC.","255 E. BONITA AVENUE, BUILDING 1 STE 200",POMONA,CA,91767,LOS ANGELES,INDEPENDENT,Profit,6/15/2018,24,TRUE,subpremise,ROOFTOP
450,-118.1617205,33.9510181,552695,18,SATELLITE HEALTHCARE SOUTH GATE,"8716 GARFIELD AVENUE, SUITE 100",SOUTH GATE,CA,90280,LOS ANGELES,SATELLITE HEALTHCARE,Non-Profit,12/21/2011,25,TRUE,subpremise,ROOFTOP
451,-118.3671242,34.0762392,52852,18,DAVITA-CRESCENT HEIGHTS DIALYSIS CENTER,8151 BEVERLY BLVD.,LOS ANGELES,CA,90048,LOS ANGELES,DAVITA,Profit,10/27/1999,20,TRUE,street_address,ROOFTOP
452,-119.7716016,36.7832255,52677,17,SAN JOAQUIN VALLEY DIALYSIS,3636 NORTH FIRST #144,FRESNO,CA,93726,FRESNO,FRESENIUS MEDICAL CARE,Profit,1/20/1989,22,TRUE,subpremise,ROOFTOP
453,-122.2598599,38.12348,552560,17,WELLBOUND OF VALLEJO,480 REDWOOD STREET SUITE 40,VALLEJO,CA,94590,SOLANO,SATELLITE HEALTHCARE,Non-Profit,10/18/2006,4,TRUE,subpremise,ROOFTOP
454,-118.3453273,33.8098864,52556,18,U.S. RENAL CARE SKYPARK DIALYSIS,3295 SKYPARK DRIVE,TORRANCE,CA,90505,LOS ANGELES,"US RENAL CARE, INC.",Profit,12/27/1978,12,TRUE,premise,ROOFTOP
455,-117.7427649,34.0233357,552774,18,DAVITA-POMONA VALLEY DIALYSIS,2703 S TOWNE AVENUE,POMONA,CA,91766,LOS ANGELES,DAVITA,Profit,11/17/2014,32,TRUE,street_address,ROOFTOP
456,-121.8085872,36.6679582,552828,17,DAVITA MARINA DIALYSIS,930 2ND AVENUE,MARINA,CA,93933,MONTEREY,DAVITA,Profit,4/11/2018,24,TRUE,street_address,RANGE_INTERPOLATED
457,-117.9364315,33.714164,552630,18,DAVITA-FOUNTAIN VALLEY DIALYSIS,"17150 EUCLID STREET, SUITE 111",FOUNTAIN VALLEY,CA,92708,ORANGE,DAVITA,Profit,10/6/2009,21,TRUE,subpremise,ROOFTOP
458,-116.3034026,33.7661233,552707,18,DAVITA-BERMUDA DUNES DIALYSIS,78030 WILDCAT DRIVE,PALM DESERT,CA,92211,RIVERSIDE,DAVITA,Profit,8/8/2012,21,TRUE,premise,ROOFTOP
459,-121.4471505,38.4727857,552697,17,RAI MACK ROAD,"4660 MACK ROAD, STE 168",SACRAMENTO,CA,95823,SACRAMENTO,RENAL ADVANTAGE,Profit,4/20/2012,23,TRUE,subpremise,ROOFTOP
460,-117.6573112,33.5623904,52597,18,DAVITA-MISSION VIEJO DIALYSIS,27640 MARGUERITE PARKWAY,MISSION VIEJO,CA,92692,ORANGE,DAVITA,Profit,8/12/1977,20,TRUE,street_address,ROOFTOP
461,-118.2893587,33.8330959,52802,18,DAVITA-HARBOR UCLA,21602 S. VERMONT AVENUE,TORRANCE,CA,90502,LOS ANGELES,DAVITA,Profit,4/2/1997,30,TRUE,street_address,ROOFTOP
462,-118.3980106,34.0234762,52875,18,U.S. RENAL CARE CULVER CITY,"9808 VENICE BLVD., SUITE 200",CULVER CITY,CA,90232,LOS ANGELES,"US RENAL CARE, INC.",Profit,12/4/2001,18,TRUE,subpremise,ROOFTOP
463,-121.4664429,38.5684452,52707,17,ALHAMBRA DIALYSIS CENTER,1315 ALHAMBRA BLVD #100,SACRAMENTO,CA,95816,SACRAMENTO,DAVITA,Profit,3/22/1991,20,TRUE,subpremise,ROOFTOP
464,-117.8254473,33.8597511,552545,18,DAVITA-ANAHEIM HILLS DIALYSIS,4201 E. LA PALMA AVENUE,ANAHEIM,CA,92807,ORANGE,DAVITA,Profit,7/15/2005,21,TRUE,premise,ROOFTOP
465,-119.7816589,36.7452824,53525,17,COMMUNITY DIALYSIS CENTER,215 NORTH FRESNO STREET,FRESNO,CA,93701,FRESNO,INDEPENDENT,Non-Profit,4/18/2002,41,TRUE,street_address,ROOFTOP
466,-118.1476057,34.1277561,552517,18,ARROYO DIALYSIS CENTER,"1111 S. ARROYO PARKWAY, SUITE 150",PASADENA,CA,91105,LOS ANGELES,INDEPENDENT,Profit,10/22/2003,24,TRUE,subpremise,ROOFTOP
467,-118.2655215,34.0529974,52631,18,DAVITA-WILSHIRE DIALYSIS CENTER,1212 WILSHIRE BLVD.,LOS ANGELES,CA,90017,LOS ANGELES,DAVITA,Profit,9/9/1985,19,TRUE,premise,ROOFTOP
468,-122.2668952,37.5684023,552620,17,FOSTER CITY DIALYSIS CENTER,1261 EAST HILLSDALE BLVD #2,FOSTER CITY,CA,94404,SAN MATEO,DAVITA,Profit,7/1/2009,16,TRUE,subpremise,ROOFTOP
469,-118.0532776,33.9027908,552641,18,FMC-NORWALK EAST,13063 ROSECRANS AVENUE,SANTA FE SPRINGS,CA,90670,LOS ANGELES,FRESENIUS MEDICAL CARE,Profit,12/4/2009,18,TRUE,street_address,ROOFTOP
470,-122.4484489,37.782709,552811,17,DAVITA GOLDEN GATE DIALYSIS,2700 GEARY BLVD. SUITE A,SAN FRANCISCO,CA,94118,SAN FRANCISCO,DAVITA,Profit,6/14/2017,24,TRUE,subpremise,ROOFTOP
471,-121.3871735,38.6527086,52826,17,NORTH HIGHLANDS DIALYSIS CENTER,4612 ROSEVILLE ROAD SUITE 100,NORTH HIGHLANDS,CA,95660,SACRAMENTO,DAVITA,Profit,3/19/1998,15,TRUE,subpremise,ROOFTOP
472,-118.2761416,34.0733763,552659,18,DAVITA-SILVER LAKE DIALYSIS,2723 W. TEMPLE STREET,LOS ANGELES,CA,90026,LOS ANGELES,DAVITA,Profit,8/5/2010,30,TRUE,premise,ROOFTOP
473,-116.9724152,32.6431157,552732,18,U.S. RENAL CARE CHULA VISTA HOME DIALYSIS,"2082 OTAY LAKES ROAD, SUITE 101",CHULA VISTA,CA,91915,SAN DIEGO,"US RENAL CARE, INC.",Profit,9/5/2013,3,TRUE,subpremise,ROOFTOP
474,-120.6663189,35.293239,552792,18,DAVITA-CASA ST HOME TRAINING,"35 CASA STREET, SUITE 110",SAN LUIS OBISPO,CA,93405,SAN LUIS OBISPO,DAVITA,Profit,8/2/2016,5,TRUE,subpremise,ROOFTOP
475,-118.033109,34.0479891,52755,18,FMC-EL MONTE,11204 E. RUSH STREET,SOUTH EL MONTE,CA,91733,LOS ANGELES,FRESENIUS MEDICAL CARE,Profit,2/17/1995,17,TRUE,premise,ROOFTOP
476,-117.4394533,34.0616923,552628,18,FMC-RAI-JUNIPER AVE-FONTANA,"10557 JUNIPER AVENUE, SUITE B",FONTANA,CA,92337,SAN BERNARDINO,FRESENIUS MEDICAL CARE,Profit,4/24/2009,24,TRUE,subpremise,ROOFTOP
477,-118.258738,33.8401119,552696,18,U.S. RENAL CARE CARSON DIALYSIS,"930 EAST DOMINGUEZ STREET, SUITE A",CARSON,CA,90746,LOS ANGELES,"US RENAL CARE, INC.",Profit,1/25/2012,18,TRUE,subpremise,ROOFTOP
478,-120.0745851,36.9809398,552703,17,MADERA KIDNEY CENTER,1560 COUNTRY CLUB RD,MADERA,CA,93638,MADERA,AMERICAN RENAL ASSOCIATES,Profit,9/28/2012,17,TRUE,street_address,ROOFTOP
479,-117.2900686,34.4803298,552825,18,US RENAL CARE VICTORVILLE HOME DIALYSIS,12611 HESPERIA RD. SUITE B,VICTORVILLE,CA,92395,SAN BERNARDINO,"US RENAL CARE, INC.",Profit,2/8/2018,1,TRUE,subpremise,ROOFTOP
480,-117.633308,34.1012204,52552,18,DAVITA-UPLAND DIALYSIS,600 N. 13TH AVENUE,UPLAND,CA,91786,SAN BERNARDINO,DAVITA,Profit,4/28/1978,24,TRUE,premise,ROOFTOP
481,-122.4316064,37.7907,552668,17,PACIFIC DIALYSIS,2351 CLAY STREET 4TH FLOOR,SAN FRANCISCO,CA,94115,SAN FRANCISCO,DAVITA,Profit,2/1/2011,30,TRUE,subpremise,ROOFTOP
482,-118.156199,34.6811621,552593,18,ANTELOPE VALLEY KIDNEY INSTITUTE,"43932 15TH STREET, SUITE 103",LANCASTER,CA,93534,LOS ANGELES,INDEPENDENT,Profit,3/10/2008,20,TRUE,subpremise,ROOFTOP
483,-118.5003552,34.2578506,52790,18,"NRC-KIDNEY CARE CENTER OF NORTH VALLEY, INC",16907 DEVONSHIRE STREET,GRANADA HILLS,CA,91344,LOS ANGELES,NATIONAL RENAL CARE,Profit,7/24/1996,20,TRUE,premise,ROOFTOP
484,-121.3140708,38.7047814,52663,17,ANTELOPE DIALYSIS CENTER,6406 TUPELO DRIVE STE-A,CITRUS HEIGHTS,CA,95621,SACRAMENTO,DAVITA,Profit,6/15/1987,31,TRUE,subpremise,ROOFTOP
485,-121.3118499,37.9318663,552808,17,PORT CITY DIALYSIS CENTER,1810 S. FRESNO AVE.,STOCKTON,CA,95206,SAN JOAQUIN,DAVITA,Profit,3/22/2017,24,TRUE,premise,ROOFTOP
486,-121.2853908,38.1292547,552504,17,TOKAY DIALYSIS CENTER,312 SOUTH FAIRMONT AVENUE SUITE A,LODI,CA,95240,SAN JOAQUIN,DAVITA,Profit,4/2/2003,12,TRUE,subpremise,ROOFTOP
487,-117.0796381,32.6075871,52835,18,U.S. RENAL CARE CHULA VISTA BROADWAY DIALYSIS,"1181 BROADWAY, SUITE 5",CHULA VISTA,CA,91911,SAN DIEGO,"US RENAL CARE, INC.",Profit,7/10/1998,30,TRUE,subpremise,ROOFTOP
488,-121.3296679,38.6377206,52604,17,MANZANITA DIALYSIS CENTER,4005 MANZANITA AVENUE STE 17 & 18,CARMICHAEL,CA,95608,SACRAMENTO,DAVITA,Profit,9/5/1984,21,TRUE,subpremise,ROOFTOP
489,-118.107843,34.0700567,52791,18,ROSEMEAD DIALYSIS CENTER,7403 HELLMAN AVENUE,ROSEMEAD,CA,91770,LOS ANGELES,INDEPENDENT,Profit,8/20/1996,17,TRUE,premise,ROOFTOP
490,-119.2753412,36.3204282,552806,18,DAVITA-VISALIA VINEYARD DIALYSIS,1140 SOUTH BEN MADDOX WAY,VISALIA,CA,93292,TULARE,DAVITA,Profit,3/13/2017,24,TRUE,premise,ROOFTOP
491,-118.3238211,34.1599802,52549,18,FMC-BURBANK,"2031 ALAMEDA AVENUE, SUITE 202",BURBANK,CA,91506,LOS ANGELES,FRESENIUS MEDICAL CARE,Profit,8/30/1977,21,TRUE,subpremise,ROOFTOP
492,-122.5433286,38.0064303,552607,17,NORTHGATE DIALYSIS CENTER,650 LAS GALLINAS ROAD,SAN RAFAEL,CA,94903,MARIN,DAVITA,Profit,1/23/2009,12,TRUE,premise,ROOFTOP
493,-119.7244604,36.7677235,552820,17,FMC FRESNO AIRPORT EAST,1899 NORTH HELM AVE SUITE 101,FRESNO,CA,93727,FRESNO,FRESENIUS MEDICAL CARE,Profit,10/20/2017,24,TRUE,subpremise,ROOFTOP
494,-118.3199397,34.1887219,52637,18,DAVITA-BURBANK DIALYSIS,1211 N. SAN FERNANDO BLVD.,BURBANK,CA,91504,LOS ANGELES,DAVITA,Profit,1/27/1986,24,TRUE,premise,ROOFTOP
495,-118.2025293,33.8654224,52889,18,FMC-NORTH LONG BEACH,145 W. VICTORIA STREET,LONG BEACH,CA,90805,LOS ANGELES,FRESENIUS MEDICAL CARE,Profit,7/22/2002,13,TRUE,street_address,ROOFTOP
496,-118.1890323,33.8137607,552709,18,LONG BEACH QUEST DIALYSIS CENTER,3140 LONG BEACH BLVD.,LONG BEACH,CA,90807,LOS ANGELES,INDEPENDENT,Profit,10/12/2012,24,TRUE,premise,ROOFTOP
497,-119.2179574,34.1978255,552764,18,DAVITA-CHANNEL ISLANDS,"3541 W 5TH STREET, STE.A",OXNARD,CA,93030,VENTURA,DAVITA,Profit,8/18/2014,15,TRUE,subpremise,ROOFTOP
498,-118.2175287,34.0508872,52622,18,DAVITA-EAST LA PLAZA DIALYSIS,"1700 CESAR E. CHAVEZ AVE., SUITE L-100",LOS ANGELES,CA,90033,LOS ANGELES,DAVITA,Profit,4/11/1985,30,TRUE,subpremise,ROOFTOP
499,-119.0684107,34.3463813,52829,18,FMC-SANTA PAULA,242 E. HARVARD BLVD.,SANTA PAULA,CA,93060,VENTURA,FRESENIUS MEDICAL CARE,Profit,5/29/1998,16,TRUE,street_address,ROOFTOP
500,-119.0382336,35.3622107,552769,18,DAVITA-BAKERSFIELD OAK ST DIALYSIS,422 OAK STREET,BAKERSFIELD,CA,93304,KERN,DAVITA,Profit,10/21/2014,24,TRUE,street_address,ROOFTOP
501,-119.6463645,36.3341572,552644,18,DAVITA-HANFORD AT HOME DIALYSIS,"900 N. DOUTY STREET, SUITE A",HANFORD,CA,93230,KINGS,DAVITA,Profit,1/20/2010,0,TRUE,subpremise,ROOFTOP
502,-120.8712916,37.0550913,552804,17,PACHECO DIALYSIS,1245 W PACHECO BLVD STE D,LOS BANOS,CA,93635,MERCED,DAVITA,Profit,1/25/2017,24,TRUE,subpremise,ROOFTOP
503,-121.352833,37.9872095,552555,17,WELLBOUND OF STOCKTON LLC,3555 DEER PARK DRIVE SUITE 140,STOCKTON,CA,95219,SAN JOAQUIN,SATELLITE HEALTHCARE,Non-Profit,7/5/2006,0,TRUE,subpremise,ROOFTOP
504,-117.2649019,34.0695505,552776,18,DAVITA-SAN BERNARDINO HOME TRAINING,966 E. HOSPITALITY LANE,SAN BERNARDINO,CA,92408,SAN BERNARDINO,DAVITA,Profit,11/10/2014,0,TRUE,premise,ROOFTOP
505,-121.9954571,36.9823051,552725,17,WELLBOUND OF SANTA CRUZ,2128 SOQUEL AVENUE,SANTA CRUZ,CA,95062,SANTA CRUZ,SATELLITE DIALYSIS,Non-Profit,8/2/2013,0,TRUE,street_address,ROOFTOP
506,-118.2966034,33.8588812,52821,18,U.S. RENAL CARE GARDENA DIALYSIS - 190TH,"1149 W. 190TH STREET, SUITE 1004",GARDENA,CA,90248,LOS ANGELES,"US RENAL CARE, INC.",Profit,2/4/1998,21,TRUE,subpremise,ROOFTOP
507,-122.4367009,37.6549644,552716,17,SOUTH SAN FRANCISCO HOME TRAINING,74 CAMARITAS AVE,SOUTH SAN FRANCISCO,CA,94080,SAN MATEO,DAVITA,Profit,5/16/2013,7,TRUE,street_address,ROOFTOP
508,-121.9960407,38.3475232,52709,17,VACAVILLE DIALYSIS CLINIC,941 MERCHANT ST,VACAVILLE,CA,95688,SOLANO,DAVITA,Profit,2/28/1991,15,TRUE,premise,ROOFTOP
509,-118.9571402,35.3941159,552735,18,FMC-BAKERSFIELD NORTHEAST,3201 MALL VIEW ROAD,BAKERSFIELD,CA,93306,KERN,FRESENIUS MEDICAL CARE,Profit,11/9/2013,24,TRUE,premise,ROOFTOP
510,-122.1688029,37.7046291,552749,17,SAN LEANDRO MARINA DIALYSIS CENTER,2551 MERCED ST,SAN LEANDRO,CA,94577,ALAMEDA,DAVITA,Profit,4/14/2014,24,TRUE,street_address,ROOFTOP
511,-120.65922,35.2806042,52811,18,DAVITA-SAN LUIS OBISPO DIALYSIS,1043 MARSH STREET,SAN LUIS OBISPO,CA,93401,SAN LUIS OBISPO,DAVITA,Profit,11/19/1997,20,TRUE,premise,ROOFTOP
512,-122.0683643,37.6180121,552672,17,HAYWARD,1661 INDUSTRIAL PARKWAY WEST,HAYWARD,CA,94544,ALAMEDA,DAVITA,Profit,4/28/2011,24,FALSE,subpremise,ROOFTOP
513,-118.1288176,33.9191528,52389,18,KAISER FOUNDATION HOSPITAL MEDICAL CTR.- DOWNEY,"CAPD DEPARTMENT-BASEMENT, 9333 E. IMPERIAL HWY",DOWNEY,CA,90242,LOS ANGELES,KAISER PERMANENTE,Non-Profit,12/1/1994,6,FALSE,premise,ROOFTOP
514,-117.900574,33.9278,52621,18,DAVITA-BREA DIALYSIS CENTER,"595 TAMARACK AVENUE, SUITES A & B",BREA,CA,92821,ORANGE,DAVITA,Profit,5/15/1985,21,TRUE,establishment,ROOFTOP
515,-118.2379747,33.8961837,52522,18,"MOBILE DIALYSIS SERVICES, INC. (COMPTON)",801 W. COMPTON BLVD.,COMPTON,CA,90220,LOS ANGELES,INDEPENDENT,Profit,9/1/1976,36,TRUE,premise,ROOFTOP
516,-117.8689597,33.8873885,552544,18,DAVITA-CROSSROADS DIALYSIS CENTER,3214 YORBA LINDA BLVD.,FULLERTON,CA,92831,ORANGE,DAVITA,Profit,7/29/2005,24,TRUE,subpremise,ROOFTOP
517,-117.7484885,34.0896625,52654,18,FMC-GAREY DIALYSIS CENTER PARTNERSHIP,150 E. ARROW HIGHWAY,POMONA,CA,91767,LOS ANGELES,FRESENIUS MEDICAL CARE,Profit,1/6/1987,29,TRUE,premise,ROOFTOP
518,-120.6249945,35.1386898,552556,18,DAVITA-PISMO BEACH DIALYSIS,"320 JAMES WAY, SUITE 110",PISMO BEACH,CA,93449,SAN LUIS OBISPO,DAVITA,Profit,6/28/2006,14,TRUE,subpremise,ROOFTOP
519,-117.2863107,33.2084146,552841,18,DAVITA-OCEANSIDE DIALYSIS,4182 OCEANSIDE BLVD,OCEANSIDE,CA,92056,SAN DIEGO,DAVITA,Profit,9/12/2018,20,TRUE,street_address,ROOFTOP
520,-120.9746423,37.6900861,52531,17,SATELLITE DIALYSIS MODESTO,3500 COFFEE ROAD #21,MODESTO,CA,95355,STANISLAUS,SATELLITE HEALTHCARE,Non-Profit,8/10/1977,25,TRUE,subpremise,ROOFTOP
521,-119.2599986,34.2752565,552575,18,DAVITA-DIALYSIS CENTER OF VENTURA,"2705 LOMA VISTA ROAD, SUITE 101",VENTURA,CA,93003,VENTURA,DAVITA,Profit,4/9/2007,20,TRUE,subpremise,ROOFTOP
522,-117.1845947,33.8972956,552805,18,FMC-MORENO VALLEY,27420 IRIS AVENUE,MORENO VALLEY,CA,92555,RIVERSIDE,FRESENIUS MEDICAL CARE,Non-Profit,2/22/2017,25,TRUE,street_address,ROOFTOP
523,-121.9325116,37.3280042,552608,17,CORNERHOUSE DIALYSIS CENTER,2005 NAGLEE AVENUE,SAN JOSE,CA,95128,SANTA CLARA,DAVITA,Profit,11/26/2008,15,TRUE,premise,ROOFTOP
524,-120.9381188,37.6054738,552581,17,CERES DIALYSIS CENTER,1768 MITCHELL ROAD SUITE 308,CERES,CA,95307,STANISLAUS,DAVITA,Profit,8/1/2007,16,TRUE,subpremise,ROOFTOP
525,-122.2674779,37.8164132,52610,17,RAI PIEDMONT,2710 TELEGRAPH AVENUE SUITE #100,OAKLAND,CA,94612,ALAMEDA,FRESENIUS MEDICAL CARE,Profit,1/14/1985,33,TRUE,subpremise,ROOFTOP
526,-122.0710943,37.8785045,552772,17,WALNUT CREEK WEST DIALYSIS CENTER,1221 ROSSMOOR PKWY,WALNUT CREEK,CA,94595,CONTRA COSTA,DAVITA,Profit,11/7/2014,21,TRUE,premise,ROOFTOP
527,-121.4362091,38.4947826,52711,17,SOUTHGATE DIALYSIS,7231 E SOUTHGATE DRIVE,SACRAMENTO,CA,95823,SACRAMENTO,"DIALYSIS CLINIC, INC.",Non-Profit,4/26/1991,22,TRUE,premise,ROOFTOP
528,-118.3016274,33.7385929,52899,18,U.S. RENAL CARE LOS ANGELES DIALYSIS,"1125 W. 6TH STREET, SUITE 101",LOS ANGELES,CA,90017,LOS ANGELES,"US RENAL CARE, INC.",Profit,3/12/2003,22,TRUE,subpremise,RANGE_INTERPOLATED
529,-118.3086771,33.7416228,552692,18,U.S. RENAL CARE GALA DIALYSIS,1666 W. THIRD STREET,LOS ANGELES,CA,90017,LOS ANGELES,"US RENAL CARE, INC.",Profit,10/24/2011,21,TRUE,street_address,RANGE_INTERPOLATED
530,-121.396268,38.4182894,552529,17,ELK GROVE DIALYSIS,9281 OFFICE PARK CIRCLE #105,ELK GROVE,CA,95758,SACRAMENTO,DAVITA,Profit,7/30/2004,21,TRUE,subpremise,ROOFTOP
531,-115.5544896,32.9604417,552554,18,FMC-BRAWLEY,"751 LEGION ROAD, SUITE 100",BRAWLEY,CA,92227,IMPERIAL,FRESENIUS MEDICAL CARE,Profit,5/31/2006,20,TRUE,subpremise,ROOFTOP
532,-117.7078759,34.018297,52739,18,DAVITA-CHINO DIALYSIS,4445 RIVERSIDE DRIVE,CHINO,CA,91710,SAN BERNARDINO,DAVITA,Profit,11/8/1993,24,TRUE,premise,ROOFTOP
533,-118.5896035,34.1709488,52381,18,KAISER FOUNDATION HOSPITAL MEDICAL CTR.- WOODLAND HILLS,"5601 DE SOTO AVENUE, AREA 247",WOODLAND HILLS,CA,91365,LOS ANGELES,KAISER PERMANENTE,Non-Profit,10/2/1991,2,FALSE,establishment,ROOFTOP
534,-118.3092081,34.0143766,52695,18,DAVITA-LOS ANGELES DIALYSIS CENTER,3901 S. WESTERN AVENUE,LOS ANGELES,CA,90062,LOS ANGELES,DAVITA,Profit,3/1/1990,28,TRUE,premise,ROOFTOP
535,-121.9141096,37.2973708,52891,17,WELLBOUND OF SAN JOSE LLC,1525 MERIDIAN AVENUE SUITE 101,SAN JOSE,CA,95125,SANTA CLARA,SATELLITE HEALTHCARE,Non-Profit,12/20/2002,4,TRUE,subpremise,ROOFTOP
536,-118.4112215,34.0593428,552800,18,DAVITA-BEVERLYWOOD DIALYSIS,"2080 CENTURY PARK EAST, SUITE 210",LOS ANGELES,CA,90067,LOS ANGELES,DAVITA,Profit,10/26/2016,13,TRUE,subpremise,ROOFTOP
537,-118.1524265,34.0344803,552568,18,FMC-DIALYSIS SERVICES OF EAST LOS ANGELES,5220 E. TELFORD STREET,EAST LOS ANGELES,CA,90022,LOS ANGELES,FRESENIUS MEDICAL CARE,Profit,12/20/2006,33,TRUE,street_address,ROOFTOP
538,-122.1760874,37.7680379,52815,17,RAI BANCROFT,6955 FOOTHILL BLVD. STE 220,OAKLAND,CA,94605,ALAMEDA,FRESENIUS MEDICAL CARE,Profit,10/28/1997,26,TRUE,subpremise,ROOFTOP
539,-121.2081361,38.6785596,52850,17,ORANGEVALE DIALYSIS CENTER,9267 GREENBACK LANE #A2,ORANGEVALE,CA,95662,SACRAMENTO,DAVITA,Profit,9/8/1999,20,TRUE,subpremise,ROOFTOP
540,-118.1370005,34.5806488,552845,18,DAVITA-PALMS VALLEY DIALYSIS,38454 5TH STREET WEST,PALMDALE,CA,93551,LOS ANGELES,DAVITA,Profit,10/22/2018,33,TRUE,premise,ROOFTOP
541,-118.1455332,33.8085784,52747,18,U.S. RENAL CARE WEST COAST DIALYSIS,"3780 KILROY AIRPORT WAY, SUITE 110",LONG BEACH,CA,90806,LOS ANGELES,"US RENAL CARE, INC.",Profit,5/1/1994,21,TRUE,subpremise,RANGE_INTERPOLATED
542,-117.6889044,33.6017859,552706,18,SATELLITE HEALTHCARE LAGUNA HILLS,"25251 PASEO DE ALICIA, SUITE 105",LAGUNA HILLS,CA,92653,ORANGE,SATELLITE HEALTHCARE,Non-Profit,1/28/2013,16,TRUE,subpremise,ROOFTOP
543,-117.8183665,33.7460706,552502,18,FMC-RAI-EAST FIRST STREET-TUSTIN,535 E. FIRST STREET,TUSTIN,CA,92780,ORANGE,FRESENIUS MEDICAL CARE,Profit,3/5/2003,25,TRUE,premise,ROOFTOP
544,-121.982235,37.5470248,552699,17,DAVITA FREMONT HOME TRAINING,39355 CALIFORNIA AVENUE,FREMONT,CA,94538,ALAMEDA,DAVITA,Profit,2/9/2012,0,TRUE,premise,ROOFTOP
545,-122.4038531,37.7947901,52769,17,SF CHINATOWN DIALYSIS CENTER,636 CLAY STREET,SAN FRANCISCO,CA,94111,SAN FRANCISCO,DAVITA,Profit,9/19/1995,22,TRUE,premise,ROOFTOP
546,-117.9445836,34.0516621,52399,18,KAISER FOUNDATION HOSPITAL MEDICAL CTR.- BALDWIN PARK,PERITONEAL DIALYSIS UNIT 1813 N HACIENDA BLVD.,LA PUENTE,CA,91744,LOS ANGELES,KAISER PERMANENTE,Non-Profit,2/7/2006,6,FALSE,establishment,ROOFTOP
547,-119.7293472,36.7743757,552563,17,ASH TREE DIALYSIS,2666 NORTH GROVE INDUSTRIAL DRIVE SUITE 106,FRESNO,CA,93727,FRESNO,DAVITA,Profit,8/22/2006,36,TRUE,subpremise,ROOFTOP
548,-117.0670304,32.5711988,52866,18,DAVITA-SAN YSIDRO DIALYSIS,"1445 30TH STREET, SUITE A AND B",SAN DIEGO,CA,92154,SAN DIEGO,DAVITA,Profit,1/3/2001,16,TRUE,establishment,ROOFTOP
549,-118.0499794,34.0907855,52893,18,"TEMPLE CITY DIALYSIS FACILITY, INC.",9945 LOWER AZUSA ROAD,TEMPLE CITY,CA,91780,LOS ANGELES,INDEPENDENT,Profit,1/13/2003,18,TRUE,premise,ROOFTOP
550,-117.629036,34.037988,552548,18,DAVITA-ONTARIO DIALYSIS,"1950 SOUTH GROVE AVENUE, SUITE 101",ONTARIO,CA,91761,SAN BERNARDINO,DAVITA,Profit,8/31/2005,20,TRUE,subpremise,ROOFTOP
551,-117.8684593,33.787046,52503,18,DAVITA-MAIN PLACE DIALYSIS CENTER,146 SOUTH MAIN STREET,ORANGE,CA,92868,ORANGE,DAVITA,Profit,8/17/1977,21,TRUE,premise,ROOFTOP
552,-118.078752,33.9114338,552727,18,DAVITA-FIRESTONE BLVD. DIALYSIS,11913 FIRESTONE BLVD.,NORWALK,CA,90650,LOS ANGELES,DAVITA,Profit,7/1/2013,24,TRUE,premise,ROOFTOP
553,-118.2371784,33.9253584,52858,18,DAVITA-KENNETH HAHN PLAZA DIALYSIS CENTER,11854 S. WILMINGTON  AVENUE,LOS ANGELES,CA,90059,LOS ANGELES,DAVITA,Profit,3/2/2000,20,TRUE,street_address,ROOFTOP
554,-117.9715547,33.7588847,52773,18,DAVITA-WESTMINSTER SOUTH DIALYSIS,14014 MAGNOLIA ST.,WESTMINSTER,CA,92683,ORANGE,DAVITA,Profit,9/29/1995,24,TRUE,subpremise,ROOFTOP
555,-122.4230564,37.790523,552761,17,SATELLITE DIALYSIS OF SAN FRANCISCO,"1700 CALIFORNIA STREET, SUITE 260",SAN FRANCISCO,CA,94109,SAN FRANCISCO,SATELLITE DIALYSIS,Non-Profit,9/22/2014,23,TRUE,subpremise,ROOFTOP
556,-118.1478787,34.0136024,52683,18,FMC-RAI-EAST OLYMPIC-LOS ANGELES,5714 EAST OLYMPIC BLVD.,LOS ANGELES,CA,90022,LOS ANGELES,FRESENIUS MEDICAL CARE,Profit,5/22/1989,24,TRUE,street_address,ROOFTOP
557,-118.6289268,34.2016729,52588,18,DAVITA-WEST HILLS DIALYSIS,"7230 MEDICAL CENTER DRIVE, SUITE 101",WEST HILLS,CA,91307,LOS ANGELES,DAVITA,Profit,6/15/1983,12,TRUE,subpremise,ROOFTOP
558,-116.2388595,33.7071014,52658,18,KIDNEY INSTITUTE OF THE DESERT,"81715 DOCTOR CARREON BLVD., SUITE B-2",INDIO,CA,92201,RIVERSIDE,INDEPENDENT,Profit,3/8/1987,20,TRUE,subpremise,ROOFTOP
559,-118.4430751,34.2796234,552687,18,FMC-RAI-SOUTH BRAND-SAN FERNANDO,501 S. BRAND BLVD.,SAN FERNANDO,CA,91340,LOS ANGELES,FRESENIUS MEDICAL CARE,Profit,9/2/2011,5,TRUE,premise,ROOFTOP
560,-121.560994,37.0191435,52751,17,SATELLITE DIALYSIS,8095 CAMINO ARROYO #100,GILROY,CA,95020,SANTA CLARA,SATELLITE HEALTHCARE,Non-Profit,8/17/1994,24,TRUE,subpremise,ROOFTOP
561,-117.955397,34.0182864,52854,18,MOHAN DIALYSIS CENTER OF INDUSTRY,15757 E. VALLEY BLVD.,CITY OF INDUSTRY,CA,91744,LOS ANGELES,INDEPENDENT,Profit,1/26/2000,32,TRUE,premise,ROOFTOP
562,-117.2249035,33.9431753,552846,18,DAVITA-VISTA HEIGHTS DIALYSIS CENTER,"12220 PERRIS BLVD, STE A",MORENO VALLEY,CA,92557,RIVERSIDE,DAVITA,Profit,9/24/2018,36,TRUE,subpremise,ROOFTOP
563,-121.7817516,37.2307316,552634,17,FMC SAN JOSE,6850 A SANTA TERESA BOULEVARD,SAN JOSE,CA,95119,SANTA CLARA,FRESENIUS MEDICAL CARE,Profit,11/20/2009,24,TRUE,street_address,ROOFTOP
564,-117.0192259,34.8916062,52816,18,DESERT CITIES DIALYSIS OF BARSTOW,655 S. 7TH  STREET,BARSTOW,CA,92311,SAN BERNARDINO,INDEPENDENT,Profit,11/12/1997,16,TRUE,premise,ROOFTOP
565,-118.151811,33.8098062,552801,18,DAVITA-EL DORADO DIALYSIS,2977 REDONDO AVENUE,LONG BEACH,CA,90806,LOS ANGELES,DAVITA,Profit,9/19/2016,24,TRUE,premise,ROOFTOP
566,-121.9741059,37.5505387,552514,17,WELLBOUND OF MENLO PARK  LLC,"39510 PASEO PADRE PKWY, SUITE 100",FREMONT,CA,94538,ALAMEDA,SATELLITE HEALTHCARE,Non-Profit,10/29/2003,4,TRUE,subpremise,ROOFTOP
567,-117.9409641,33.8152199,552766,18,DAVITA-ANAHEIM SPRINGS DIALYSIS,1324 S EUCLID STREET,ANAHEIM,CA,92802,ORANGE,DAVITA,Profit,9/15/2014,25,TRUE,premise,ROOFTOP
568,-117.1729193,34.1219897,552663,18,DAVITA-HIGHLAND RANCH DIALYSIS CENTER,"7223 CHURCH STREET, SUITE A-14",HIGHLAND,CA,92346,SAN BERNARDINO,DAVITA,Profit,4/22/2010,21,TRUE,establishment,ROOFTOP
569,-121.4104824,38.459757,552747,17,CALVINE HOME TRAINING CENTER,8231 EAST STOCKTON BLVD. SUITE A,SACRAMENTO,CA,95828,SACRAMENTO,DAVITA,Profit,3/24/2014,0,TRUE,subpremise,ROOFTOP
570,-119.1323857,35.3122665,552796,18,DAVITA-SEVEN OAKS DIALYSIS,4651 CORPORATE COURT,BAKERSFIELD,CA,93311,KERN,DAVITA,Profit,11/7/2016,24,TRUE,premise,ROOFTOP
571,-117.9312161,33.8931977,552759,18,DAVITA-BASTANCHURY DIALYSIS,1950 SUNNYCREST DR STE 1300,FULLERTON,CA,92835,ORANGE,DAVITA,Profit,9/24/2014,24,TRUE,subpremise,ROOFTOP
572,-121.2624766,38.79281,52765,17,RAI FAIRWAY ROCKLIN,6000 FAIRWAY DRIVE STE #14,ROCKLIN,CA,95677,PLACER,FRESENIUS MEDICAL CARE,Profit,5/31/1995,14,TRUE,subpremise,ROOFTOP
573,-117.2968648,33.6527333,52895,18,DAVITA-LAKE ELSINORE DIALYSIS CENTER,32291 MISSION TRAIL,LAKE ELSINORE,CA,92530,RIVERSIDE,DAVITA,Profit,11/18/2002,18,TRUE,premise,ROOFTOP
574,-122.3804416,37.5938827,552681,17,DAVITA BURLINGAME,1720 EL CAMINO REAL,BURLINGAME,CA,94010,SAN MATEO,DAVITA,Profit,7/1/2011,13,TRUE,premise,ROOFTOP
575,-117.5911758,34.0692352,552613,18,U.S. RENAL CARE DIALYSIS CENTER OF ONTARIO,"2850 INLAND EMPIRE BLVD., SUITE C",ONTARIO,CA,91764,SAN BERNARDINO,INDEPENDENT,Profit,10/15/2008,18,TRUE,subpremise,ROOFTOP
576,-122.2542021,38.1319914,552754,17,SATELLITE DIALYSIS VALLEJO,"4300 SONOMA BLVD, SUITE 25",VALLEJO,CA,94589,SOLANO,SATELLITE DIALYSIS,Non-Profit,3/10/2014,33,TRUE,subpremise,ROOFTOP
577,-118.3019729,33.7385937,552810,18,U.S. RENAL CARE GRAND HOME PROGRAM,"1145 WEST 6TH STREET, SUITE 100",LOS ANGELES,CA,90017,LOS ANGELES,"US RENAL CARE, INC.",Profit,3/23/2017,3,FALSE,subpremise,RANGE_INTERPOLATED
578,-118.1633751,34.044932,52700,18,DAVITA-MONTEREY PARK DIALYSIS CENTER,"2560 CORPORATE PLACE, BUILDING D, SUITE 100-101",MONTEREY PARK,CA,91754,LOS ANGELES,DAVITA,Profit,8/30/1990,28,TRUE,establishment,ROOFTOP
579,-119.8003218,36.8840366,52400,17,CHILDRENS HOSPITAL CENTRAL CALIFORNIA,9300 VALLEY CHILDRENS PLACE,MADERA,CA,93636,MADERA,INDEPENDENT,Non-Profit,8/22/2006,0,FALSE,premise,ROOFTOP
580,-121.9676625,36.9786852,52555,17,SATELLITE DIALYSIS SANTA CRUZ,3801 CLARES STREET,CAPITOLA,CA,95010,SANTA CRUZ,SATELLITE HEALTHCARE,Profit,1/26/1979,24,TRUE,premise,ROOFTOP
581,-117.0740148,34.0327488,552578,18,DAVITA-YUCAIPA DIALYSIS CENTER,33487 YUCAIPA BLVD.,YUCAIPA,CA,92399,SAN BERNARDINO,DAVITA,Profit,5/25/2007,12,TRUE,premise,ROOFTOP
582,-117.0938191,32.756288,52886,18,FMC-DIALYSIS SERVICES OF COLLEGE,"4660 EL CAJON BLVD., SUITE 110",SAN DIEGO,CA,92115,SAN DIEGO,FRESENIUS MEDICAL CARE,Profit,7/24/2002,12,TRUE,subpremise,ROOFTOP
583,-122.1503889,37.7431042,52787,17,ALAMEDA COUNTY DIALYSIS CENTER,10700 MACARTHUR BLVD. BUILDING 7,OAKLAND,CA,94605,ALAMEDA,DAVITA,Profit,4/24/1996,19,TRUE,subpremise,ROOFTOP
584,-121.9029513,37.3783992,552711,17,DAVITA SILICON VALLEY DIALYSIS,"725 RIDDER PARK., STE 10",SAN JOSE,CA,95131,SANTA CLARA,DAVITA,Profit,3/13/2013,32,TRUE,subpremise,ROOFTOP
585,-116.1775763,33.6784147,552722,18,"COACHELLA KIDNEY INSTITUTE, LLC",1413 6TH STREET,COACHELLA,CA,92236,RIVERSIDE,INDEPENDENT,Profit,4/19/2013,25,TRUE,premise,ROOFTOP
586,-118.1498455,34.1390842,552822,18,DAVITA-HUNTINGTON DIALYSIS,390 S. FAIR OAKS BLVD.,PASADENA,CA,91105,LOS ANGELES,DAVITA,Profit,12/22/2017,25,TRUE,premise,ROOFTOP
587,-118.3533619,33.8461211,552690,18,U.S. RENAL CARE TORRANCE DIALYSIS CENTER,20430 HAWTHORNE BLVD.,TORRANCE,CA,90503,LOS ANGELES,"US RENAL CARE, INC.",Profit,10/4/2011,18,TRUE,street_address,ROOFTOP
588,-117.2791389,34.1270678,52575,18,FMC-RAI-NORTH WATERMAN-SAN BERNARDINO,1500 N. WATERMAN AVENUE,SAN BERNARDINO,CA,92404,SAN BERNARDINO,FRESENIUS MEDICAL CARE,Profit,11/15/1981,32,TRUE,premise,ROOFTOP
589,-116.9974291,32.786749,52686,18,FMC-LA MESA DIALYSIS CENTER,5995 SEVERIN DRIVE,LA MESA,CA,91942,SAN DIEGO,FRESENIUS MEDICAL CARE,Profit,9/26/1989,24,TRUE,subpremise,ROOFTOP
590,-117.6750871,34.063693,552816,18,"ONTARIO HOLT DIALYSIS CENTER, INC.",1310 WEST HOLT AVENUE,ONTARIO,CA,91762,SAN BERNARDINO,INDEPENDENT,Profit,10/11/2017,18,TRUE,premise,ROOFTOP
591,-121.9310005,37.6915548,52568,17,PLEASANTON DIALYSIS CENTER,5720 STONERIDGE MALL ROAD #160,PLEASANTON,CA,94588,ALAMEDA,DAVITA,Profit,2/10/1981,20,TRUE,subpremise,ROOFTOP
592,-118.0720362,33.8242501,552686,18,DAVITA-SOUTH CERRITOS DIALYSIS,12191 226TH STREET,HAWAIIAN GARDENS,CA,90716,LOS ANGELES,DAVITA,Profit,1/28/2011,15,TRUE,street_address,ROOFTOP
593,-117.9638267,33.9396647,552852,18,DAVITA-LA HABRA DIALYSIS,1611 W WHITTIER BLVD,LA HABRA,CA,90631,ORANGE,DAVITA,Profit,10/24/2018,36,TRUE,street_address,ROOFTOP
594,-121.838736,39.7760941,52752,17,"RAI CERES AVENUE, CHICO",3011 CERES AVENUE #125,CHICO,CA,95973,BUTTE,FRESENIUS MEDICAL CARE,Profit,8/26/1994,20,TRUE,subpremise,ROOFTOP
595,-122.5269486,37.9479315,52526,17,SATELLITE DIALYSIS GREENBRAE,565 SIR FRANCIS DRAKE BLVD.,GREENBRAE,CA,94904,MARIN,SATELLITE HEALTHCARE,Non-Profit,8/18/1977,23,TRUE,premise,ROOFTOP
596,-121.9168506,37.4563217,552558,17,WELLBOUND OF MILPITAS LLC,1850 MILMONT DRIVE,MILPITAS,CA,95035,SANTA CLARA,SATELLITE HEALTHCARE,Non-Profit,8/2/2006,0,TRUE,street_address,ROOFTOP
597,-118.7836987,34.283891,52638,18,DAVITA-DIALYSIS CENTER OF SIMI VALLEY,970 ENCHANTED WAY,SIMI VALLEY,CA,93065,VENTURA,DAVITA,Profit,11/26/1985,15,TRUE,street_address,ROOFTOP
598,-116.3032088,33.7321426,552673,18,"LA QUINTA KIDNEY CENTER, LLC","43576 WASHINGTON STREET, SUITE 101",LA QUINTA,CA,92253,RIVERSIDE,INDEPENDENT,Profit,3/21/2011,28,TRUE,subpremise,ROOFTOP
599,-121.31757,36.4155349,52892,17,SOLEDAD DIALYSIS CENTER,901 LOS COCHES DRIVE,SOLEDAD,CA,93960,MONTEREY,DAVITA,Profit,10/22/2002,18,TRUE,premise,ROOFTOP
600,-117.4612641,33.9759047,552817,18,DAVITA-JURUPA VALLEY DIALYSIS,8080 LIMONITE AVENUE,JURUPA VALLEY,CA,92509,RIVERSIDE,DAVITA,Profit,10/16/2017,25,TRUE,street_address,ROOFTOP
601,-122.3099987,37.5480285,52819,17,SATELLITE DIALYSIS SAN MATEO,2000 SOUTH EL CAMINO REAL,SAN MATEO,CA,94403,SAN MATEO,SATELLITE HEALTHCARE,Non-Profit,3/10/1998,24,TRUE,premise,ROOFTOP
602,-124.1370001,40.7802354,52543,17,FMC EUREKA,2765 TIMBER RIDGE LANE,EUREKA,CA,95503,HUMBOLDT,FRESENIUS MEDICAL CARE,Profit,8/17/1977,15,TRUE,premise,ROOFTOP
603,-118.2724418,34.0639365,52582,18,"ST. VINCENT DIALYSIS CENTER, INC.","201 S. ALVARADO STREET, SUITE 220",LOS ANGELES,CA,90057,LOS ANGELES,INDEPENDENT,Non-Profit,9/1/1982,17,TRUE,subpremise,ROOFTOP
604,-118.8706943,34.1747849,52873,18,DAVITA-DIALYSIS CENTER OF THOUSAND OAKS,"375 ROLLING OAKS DRIVE, SUITE 100",THOUSAND OAKS,CA,91361,VENTURA,DAVITA,Profit,10/26/2001,15,TRUE,subpremise,ROOFTOP
605,-117.3711038,34.1329481,52863,18,FMC-RAI-NORTH RIVERSIDE-RIALTO,"1850 N. RIVERSIDE AVENUE, SUITE 150",RIALTO,CA,92376,SAN BERNARDINO,FRESENIUS MEDICAL CARE,Profit,6/28/2000,21,TRUE,subpremise,ROOFTOP
606,-118.19889,34.0622976,52794,18,DAVITA-USC KIDNEY CENTER,2310 ALCAZAR STREET,LOS ANGELES,CA,90033,LOS ANGELES,DAVITA,Profit,11/5/1996,58,TRUE,premise,ROOFTOP
607,-117.2865785,34.4744376,552708,18,DAVITA-MOJAVE SAGE DIALYSIS,"17207 JASMINE STREET, SUITE 1",VICTORVILLE,CA,92395,SAN BERNARDINO,DAVITA,Profit,10/10/2012,23,TRUE,subpremise,ROOFTOP
608,-121.8042716,37.9765798,552829,17,DAVITA LONE TREE RANCH DIALYSIS,4040 LONE TREE WAY,ANTIOCH,CA,94531,CONTRA COSTA,DAVITA,Profit,4/19/2018,24,TRUE,street_address,ROOFTOP
609,-119.351682,36.3244657,52696,18,DAVITA-VISALIA DIALYSIS,"5429 W. CYPRESS AVENUE, SUITE A",VISALIA,CA,93277,TULARE,DAVITA,Profit,7/6/1990,24,TRUE,subpremise,ROOFTOP
610,-117.8341192,34.0963907,552552,18,"SAN DIMAS DIALYSIS CENTER, INC.","1335 CYPRESS STREET, SUITE 102",SAN DIMAS,CA,91773,LOS ANGELES,INDEPENDENT,Profit,5/12/2006,32,TRUE,subpremise,ROOFTOP
611,-117.9599551,33.8575391,552758,18,FMC-ORANGE COUNTY HOME,1401 S BROOKHURST STE 108,FULLERTON,CA,92833,ORANGE,FRESENIUS MEDICAL CARE,Profit,5/20/2014,4,TRUE,subpremise,ROOFTOP
612,-122.2545213,38.1231032,52567,17,VALLEJO DIALYSIS CENTER,830 REDWOOD STREET,VALLEJO,CA,94590,SOLANO,DAVITA,Profit,8/7/1980,19,TRUE,premise,ROOFTOP
613,-120.9891109,37.6674926,52783,17,"MODESTO KIDNEY CENTER, LLC","305 E. GRANGER AVE.., STE. 102",MODESTO,CA,95350,STANISLAUS,INNOVATIVE DIALYSIS SYSTEMS,Profit,4/9/1996,17,TRUE,subpremise,ROOFTOP
614,-122.0309145,37.9273193,52758,17,FMC DIABLO WALNUT CREEK,365 LENNON LANE #160,WALNUT CREEK,CA,94598,CONTRA COSTA,FRESENIUS MEDICAL CARE,Profit,1/1/1995,20,TRUE,subpremise,ROOFTOP
615,-121.2434106,38.7650873,552540,17,RAI SECRET RAVINE PARKWAY,1451 SECRET RAVINE PARKWAY SUITE 130,ROSEVILLE,CA,95661,PLACER,RENAL ADVANTAGE,Profit,2/14/2005,20,TRUE,subpremise,ROOFTOP
616,-117.1070338,32.7106455,552798,18,FMC-RAVEN,499 RAVEN STREET,SAN DIEGO,CA,92102,SAN DIEGO,FRESENIUS MEDICAL CARE,Profit,1/12/2017,31,TRUE,premise,ROOFTOP
617,-117.9251748,33.6997405,552518,18,DAVITA-COSTA MESA DIALYSIS,1590 SCENIC AVENUE,COSTA MESA,CA,92626,ORANGE,DAVITA,Profit,12/12/2003,24,TRUE,premise,ROOFTOP
618,-121.6177024,39.1529857,52563,17,YUBA CITY DIALYSIS CENTER,1525 PLUMAS COURT SUITE A,YUBA CITY,CA,95991,SUTTER,DAVITA,Profit,8/4/1980,24,TRUE,subpremise,ROOFTOP
619,-122.0337121,38.2622651,552763,17,DAVITA FAIRFIELD DOWNTOWN,1800 NORTH TEXAS STREET,FAIRFIELD,CA,94533,SOLANO,DAVITA,Profit,10/15/2014,24,TRUE,premise,ROOFTOP
620,-121.2681582,38.5917611,552612,17,SUNSET DIALYSIS CENTER,3071 GOLD CANAL DRIVE,RANCHO CORDOVA,CA,95670,SACRAMENTO,DAVITA,Profit,1/7/2009,24,TRUE,premise,ROOFTOP
621,-118.1846769,33.9316872,52844,18,DAVITA-IMPERIAL CARE DIALYSIS CENTER,4345 E. IMPERIAL HIGHWAY,LYNWOOD,CA,90262,LOS ANGELES,DAVITA,Profit,4/23/1999,31,TRUE,premise,ROOFTOP
622,-121.972772,37.5508159,552698,17,DAVITA FREMONT DIALYSIS,2599 STEVENSON BLVD,FREMONT,CA,94538,ALAMEDA,DAVITA,Profit,4/10/2012,24,TRUE,premise,ROOFTOP
623,-118.3587369,33.9706547,552671,18,FMC-EUCALYPTUS,610 N. EUCALYPTUS AVENUE,INGLEWOOD,CA,90302,LOS ANGELES,FRESENIUS MEDICAL CARE,Profit,2/9/2011,24,TRUE,premise,ROOFTOP
624,-118.4554888,34.1787334,552701,18,FMC-VAN NUYS,14812 OXNARD STREET,VAN NUYS,CA,91411,LOS ANGELES,FRESENIUS MEDICAL CARE,Profit,8/3/2012,25,TRUE,street_address,ROOFTOP
625,-121.9800582,37.3227961,552602,17,SAN JOSE AT HOME,4400 STEVENS CREEK BLVD. SUITE 50,SAN JOSE,CA,95129,SANTA CLARA,DAVITA,Profit,8/28/2008,4,TRUE,subpremise,ROOFTOP
626,-119.0789097,34.3492691,52800,18,DAVITA-DIALYSIS CENTER OF SANTA PAULA,253 MARCH STREET,SANTA PAULA,CA,93060,VENTURA,DAVITA,Profit,3/17/1997,10,TRUE,street_address,ROOFTOP
627,-118.0465562,33.9680872,52712,18,INTERCOMMUNITY DIALYSIS CENTER,12455 WASHINGTON BLVD.,WHITTIER,CA,90602,LOS ANGELES,INDEPENDENT,Profit,6/17/1991,31,TRUE,premise,ROOFTOP
628,-122.3300162,37.9317219,552688,17,DAVITA RICHMOND DIALYSIS,"4200 MACDONALD AVE., STE A",RICHMOND,CA,94805,CONTRA COSTA,DAVITA,Profit,11/30/2011,24,TRUE,subpremise,ROOFTOP
629,-117.9947921,34.0789269,552506,18,FMC-IRWINDALE,"12711 RAMONA BLVD., SUITE 111",IRWINDALE,CA,91706,LOS ANGELES,FRESENIUS MEDICAL CARE,Profit,5/12/2003,31,TRUE,street_address,ROOFTOP
630,-118.430291,34.0526551,52865,18,DAVITA-CENTURY CITY DIALYSIS CENTER,10630 SANTA MONICA BLVD.,LOS ANGELES,CA,90025,LOS ANGELES,DAVITA,Profit,8/1/1998,40,TRUE,premise,ROOFTOP
631,-118.2465407,33.9248997,52590,18,FMC-RAI-COMPTON-LOS ANGELES,11859 COMPTON AVENUE,LOS ANGELES,CA,90059,LOS ANGELES,FRESENIUS MEDICAL CARE,Profit,7/19/1983,27,TRUE,premise,ROOFTOP
632,-118.4516062,34.2003704,52585,18,U.S. RENAL CARE VAN NUYS DIALYSIS,"14624 SHERMAN WAY, SUITE 106",VAN NUYS,CA,91405,LOS ANGELES,"US RENAL CARE, INC.",Profit,2/1/1983,14,TRUE,subpremise,ROOFTOP
633,-119.0364968,36.0803938,552741,18,"DIALYSIS CENTER OF PORTERVILLE, LLC",841 & 847 W. HENDERSON AVE.,PORTERVILLE,CA,93257,TULARE,AMERICAN RENAL ASSOCIATES,Profit,12/17/2013,20,TRUE,subpremise,RANGE_INTERPOLATED
634,-120.8623611,37.7595925,52853,17,"OAKDALE KIDNEY CENTER, LLC",1405 WEST F STREET SUITE B,OAKDALE,CA,95361,STANISLAUS,INNOVATIVE DIALYSIS SYSTEMS,Profit,10/8/1999,10,TRUE,subpremise,ROOFTOP
635,-121.7762498,37.2294884,552635,17,SATELLITE DIALYSIS SANTA TERESA,7019 REALM DRIVE,SAN JOSE,CA,95119,SANTA CLARA,SATELLITE HEALTHCARE,Non-Profit,1/5/2010,25,TRUE,street_address,ROOFTOP
636,-121.4527659,38.4750013,552814,17,DAVITA DEER PARK DIALYSIS CENTER,4401 MACK ROAD,SACRAMENTO,CA,95823,SACRAMENTO,DAVITA,Profit,10/11/2017,24,TRUE,premise,ROOFTOP
637,-118.1189432,33.9480468,52574,18,DAVITA-DOWNEY DIALYSIS CENTER,"8630 FLORENCE AVENUE, SUITE 100",DOWNEY,CA,90240,LOS ANGELES,DAVITA,Profit,8/31/1981,19,TRUE,subpremise,ROOFTOP
638,-117.151407,32.7977575,52395,18,CHILDRENS HOSPITAL OF SAN DIEGO,"3020 CHILDRENS WAY, MC 5115",SAN DIEGO,CA,92123,SAN DIEGO,INDEPENDENT,Non-Profit,4/16/2006,3,TRUE,establishment,ROOFTOP
639,-121.7856333,38.6771431,52825,17,FMC WOODLAND,35 WEST MAIN STREET,WOODLAND,CA,95695,YOLO,INDEPENDENT,Profit,3/20/1998,13,TRUE,street_address,ROOFTOP
640,-118.097453,34.1695354,52613,18,DAVITA-EATON CANYON DIALYSIS,2551 E. WASHINGTON BLVD.,PASADENA,CA,91107,LOS ANGELES,DAVITA,Profit,2/20/1985,30,TRUE,street_address,ROOFTOP
641,-118.3809199,34.0739596,52643,18,DAVITA-TOWER DIALYSIS,"8635 W. THIRD STREET, SUITE 560",LOS ANGELES,CA,90048,LOS ANGELES,DAVITA,Profit,7/1/1986,20,TRUE,subpremise,ROOFTOP
642,-115.4940909,32.6797954,52830,18,FMC-CALEXICO DESERT DIALYSIS,351 E. BIRCH ST,CALEXICO,CA,92231,IMPERIAL,FRESENIUS MEDICAL CARE,Profit,10/1/2013,24,TRUE,street_address,ROOFTOP
643,-117.4786328,33.9027871,552553,18,DAVITA-MAGNOLIA WEST DIALYSIS,11161 MAGNOLIA AVENUE,RIVERSIDE,CA,92505,RIVERSIDE,DAVITA,Profit,5/26/2006,30,TRUE,premise,ROOFTOP
644,-121.9719723,37.2261299,552750,17,SATELLITE DIALYSIS LOS GATOS,53 LOS GATOS SARATOGA ROAD,LOS GATOS,CA,95032,SANTA CLARA,SATELLITE DIALYSIS,Non-Profit,4/30/2014,17,TRUE,premise,ROOFTOP
645,-121.3425052,38.6605256,52796,17,DCI MADISON DIALYSIS CLINIC,5222 MADISON AVENUE,SACRAMENTO,CA,95841,SACRAMENTO,"DIALYSIS CLINIC, INC.",Non-Profit,12/23/1996,12,TRUE,premise,ROOFTOP
646,-122.4330549,37.6533517,552619,17,WESTBOROUGH DIALYSIS CENTER,925 EL CAMINO REAL,SOUTH SAN FRANCISCO,CA,94080,SAN MATEO,DAVITA,Profit,6/25/2009,5,TRUE,premise,ROOFTOP
647,-120.0695026,36.9648076,552729,17,NORTH MADERA DIALYSIS,720 N. I ST.,MADERA,CA,93637,MADERA,DAVITA,Profit,7/25/2013,22,TRUE,premise,ROOFTOP
648,-119.2500257,35.7555682,52674,18,DAVITA-DELANO DIALYSIS,405 DOVER PARKWAY,DELANO,CA,93215,KERN,DAVITA,Profit,10/7/1988,32,TRUE,street_address,ROOFTOP
649,-121.5042573,38.6509172,552569,17,NATOMAS DIALYSIS,30 G0LDENLAND COURT BUILDING G,SACRAMENTO,CA,95834,SACRAMENTO,DAVITA,Profit,1/4/2007,24,TRUE,subpremise,ROOFTOP
650,-117.8660057,33.7825731,52311,18,ST. JOSEPH HOSPITAL RENAL CENTER,SR. ELIZABETH BLDG. 1100 W. STEWART DRIVE,ORANGE,CA,92868,ORANGE,INDEPENDENT,Non-Profit,8/15/1977,39,TRUE,establishment,ROOFTOP
651,-122.4524588,37.7695388,52507,17,RAI HAIGHT,1800 HAIGHT STREET,SAN FRANCISCO,CA,94117,SAN FRANCISCO,FRESENIUS MEDICAL CARE,Profit,8/8/1977,17,TRUE,subpremise,ROOFTOP
652,-119.0963331,35.3685365,52635,18,DAVITA-BRIMHALL DIALYSIS,"8501 BRIMHALL ROAD, BLDG. 500",BAKERSFIELD,CA,93312,KERN,DAVITA,Profit,11/6/1985,20,TRUE,subpremise,ROOFTOP
653,-117.163193,32.7494013,52500,18,FMC-HILLCREST DIALYSIS,3960 THIRD AVENUE,SAN DIEGO,CA,92103,SAN DIEGO,FRESENIUS MEDICAL CARE,Profit,8/11/1977,20,TRUE,premise,ROOFTOP
654,-122.470209,37.6971526,552642,17,WESTLAKE DALY CITY DIALYSIS CENTER,2201 JUNIPERO SIERRA BOULEVARD. #A,DALY CITY,CA,94014,SAN MATEO,DAVITA,Profit,2/18/2010,31,TRUE,subpremise,ROOFTOP
655,-121.8134221,37.3503311,552652,17,SATELLITE DIALYSIS WHITE ROAD,1450 S WHITE ROAD #30,SAN JOSE,CA,95127,SANTA CLARA,SATELLITE HEALTHCARE,Non-Profit,7/8/2010,25,TRUE,subpremise,ROOFTOP
656,-116.9726617,32.6430736,552762,18,U.S. RENAL CARE CHULA VISTA DIALYSIS,2084 OTAY LAKES RD STE 101,CHULA VISTA,CA,91915,SAN DIEGO,"US RENAL CARE, INC.",Profit,7/23/2014,15,TRUE,subpremise,ROOFTOP
657,-118.1433088,34.0777458,52760,18,FMC-SAN GABRIEL DIALYSIS CENTER,"1801 W. VALLEY BLVD., SUITE 102",ALHAMBRA,CA,91803,LOS ANGELES,FRESENIUS MEDICAL CARE,Profit,3/20/1995,38,TRUE,subpremise,ROOFTOP
658,-122.8043434,38.5511027,52887,17,SATELLITE DIALYSIS WINDSOR,"8911 LAKEWOOD DRIVE, STE.16",WINDSOR,CA,95492,SONOMA,SATELLITE HEALTHCARE,Non-Profit,9/4/2002,12,TRUE,subpremise,ROOFTOP
659,-118.3954109,34.0248398,52544,18,FMC-CULVER CITY DIALYSIS,9432 VENICE BLVD.,CULVER CITY,CA,90230,LOS ANGELES,FRESENIUS MEDICAL CARE,Profit,8/14/1977,24,TRUE,establishment,ROOFTOP
660,-118.1236054,34.0671221,52564,18,DAVITA-GARFIELD HEMODIALYSIS CENTER,118 HILLIARD AVENUE,MONTEREY PARK,CA,91754,LOS ANGELES,DAVITA,Profit,4/6/1977,25,TRUE,premise,ROOFTOP
661,-118.1023007,34.0156876,52843,18,U.S. RENAL CARE MONTEBELLO DIALYSIS,"433 N. 4TH. ST., SUITE 102",MONTEBELLO,CA,90640,LOS ANGELES,"US RENAL CARE, INC.",Profit,4/5/1999,15,TRUE,subpremise,ROOFTOP
662,-118.2799555,33.9750517,52872,18,FLORENCE DIALYSIS CENTER,351 W. FLORENCE AVENUE,LOS ANGELES,CA,90003,LOS ANGELES,INDEPENDENT,Profit,5/23/2001,32,TRUE,premise,ROOFTOP
663,-118.3283874,33.7943365,552832,18,DAVITA-ROLLING HILLS DIALYSIS,"25210 CRENSHAW BLVD., SUITE 110",TORRANCE,CA,90505,LOS ANGELES,DAVITA,Profit,4/20/2018,27,TRUE,subpremise,ROOFTOP
664,-120.4588509,34.6506023,52838,18,"LOMPOC ARTIFICIAL KIDNEY CENTER, LLC",127 W. PINE AVENUE,LOMPOC,CA,93436,SANTA BARBARA,INDEPENDENT,Profit,10/10/1998,18,TRUE,premise,ROOFTOP
665,-119.8069928,36.8452832,552505,17,PALM BLUFFS DIALYSIS CENTER,770 WEST PINEDALE AVE,FRESNO,CA,93711,FRESNO,DAVITA,Profit,3/17/2003,25,TRUE,street_address,ROOFTOP
666,-122.7113432,38.3495294,552730,17,SATELLITE DIALYSIS ROHNERT PARK,6265 COMMERCE BLVD SUITE 156,ROHNERT PARK,CA,94928,SONOMA,SATELLITE HEALTHCARE,Non-Profit,9/13/2013,25,TRUE,subpremise,ROOFTOP
667,-118.4424726,34.2801063,552525,18,FMC-SAN FERNANDO,"451 S. BRAND BLVD., SUITE 100",SAN FERNANDO,CA,91340,LOS ANGELES,FRESENIUS MEDICAL CARE,Profit,4/28/2004,25,TRUE,subpremise,ROOFTOP
668,-118.1430346,33.8916848,52652,18,DAVITA-PARAMOUNT DIALYSIS CENTER,15625 LAKEWOOD BLVD.,PARAMOUNT,CA,90723,LOS ANGELES,DAVITA,Profit,1/5/1987,37,TRUE,premise,ROOFTOP
669,-118.2723047,34.0320736,52828,18,DAVITA-LOS ANGELES DOWNTOWN,2021 S. FLOWER STREET,LOS ANGELES,CA,90007,LOS ANGELES,DAVITA,Profit,4/24/1998,27,TRUE,premise,ROOFTOP
670,-118.4600955,35.1243138,552790,18,SANDERLING DIALYSIS OF TEHACHAPI,711 VALLEY BLVD.,TEHACHAPI,CA,93561,KERN,INDEPENDENT,Profit,9/22/2016,9,TRUE,street_address,RANGE_INTERPOLATED
671,-119.0657352,35.4325372,552623,18,FMC-MEADOWS FIELD,"3101 PEGASUS DRIVE, SUITE 100",BAKERSFIELD,CA,93308,KERN,FRESENIUS MEDICAL CARE,Profit,4/6/2009,21,TRUE,subpremise,ROOFTOP
672,-121.8115756,37.3050555,552714,17,SATELLITE DIALYSIS SILVER CREEK,1620 EAST CAPITOL EXPRESSWAY,SAN JOSE,CA,95121,SANTA CLARA,SATELLITE DIALYSIS,Non-Profit,4/17/2013,31,TRUE,subpremise,ROOFTOP
673,-120.9735844,38.6584059,52691,17,CAMERON PARK DIALYSIS,3311 COACH LN STE C,CAMERON PARK,CA,95682,EL DORADO,DAVITA,Profit,8/30/1989,24,TRUE,subpremise,ROOFTOP
674,-118.0911396,34.0928635,552657,18,"SAN GABRIEL NEPHROLOGY SERVICES, LLC",801 S. SAN GABRIEL BLVD.,SAN GABRIEL,CA,91776,LOS ANGELES,INDEPENDENT,Profit,6/4/2010,36,TRUE,premise,ROOFTOP